(Exported by FreeCAD)
(Post Processor: linuxcnc_post)
(Output Time:2026-04-21 17:45:07.985042)
(begin preamble)
G17 G54 G40 G49 G80 G90
G21
(begin operation: Fixture)
(machine units: mm/min)
G54 
(finish operation: Fixture)
(begin operation: TC: Endmill_6mm001)
(machine units: mm/min)
(TC: Endmill_6mm001) 
M5
M6 T2 
G43 H2 
(finish operation: TC: Endmill_6mm001)
(begin operation: Kytkimenreikä)
(machine units: mm/min)
(Kytkimenreikä) 
G0 Z10.000 
G0 
G0 X91.172 Y45.399 
G0 X91.172 Y45.399 Z3.000 
G1 X91.172 Y45.399 Z-5.000 F60.000 
G2 X90.024 Y46.203 Z-5.000 I-0.172 J0.976 F120.000 
G2 X90.828 Y47.351 Z-5.000 I0.976 J0.172 F120.000 
G2 X91.172 Y45.399 Z-5.000 I0.172 J-0.976 F120.000 
G0 Z10.000 
G0 X92.215 Y39.484 Z10.000 
G0 X92.215 Y39.484 Z3.000 
G1 X92.215 Y39.484 Z-5.000 F60.000 
G2 X89.785 Y53.266 Z-5.000 I-1.215 J6.891 F120.000 
G2 X92.215 Y39.484 Z-5.000 I1.215 J-6.891 F120.000 
G0 Z10.000 
G0 X91.172 Y45.399 Z10.000 
G0 X91.172 Y45.399 Z3.000 
G1 X91.172 Y45.399 Z-10.000 F60.000 
G2 X90.024 Y46.203 Z-10.000 I-0.172 J0.976 F120.000 
G2 X90.828 Y47.351 Z-10.000 I0.976 J0.172 F120.000 
G2 X91.172 Y45.399 Z-10.000 I0.172 J-0.976 F120.000 
G0 Z10.000 
G0 X92.215 Y39.484 Z10.000 
G0 X92.215 Y39.484 Z3.000 
G1 X92.215 Y39.484 Z-10.000 F60.000 
G2 X89.785 Y53.266 Z-10.000 I-1.215 J6.891 F120.000 
G2 X92.215 Y39.484 Z-10.000 I1.215 J-6.891 F120.000 
G0 Z10.000 
G0 X91.172 Y45.399 Z10.000 
G0 X91.172 Y45.399 Z3.000 
G1 X91.172 Y45.399 Z-15.000 F60.000 
G2 X90.024 Y46.203 Z-15.000 I-0.172 J0.976 F120.000 
G2 X90.828 Y47.351 Z-15.000 I0.976 J0.172 F120.000 
G2 X91.172 Y45.399 Z-15.000 I0.172 J-0.976 F120.000 
G0 Z10.000 
G0 X92.215 Y39.484 Z10.000 
G0 X92.215 Y39.484 Z3.000 
G1 X92.215 Y39.484 Z-15.000 F60.000 
G2 X89.785 Y53.266 Z-15.000 I-1.215 J6.891 F120.000 
G2 X92.215 Y39.484 Z-15.000 I1.215 J-6.891 F120.000 
G0 Z10.000 
G0 X91.172 Y45.399 Z10.000 
G0 X91.172 Y45.399 Z3.000 
G1 X91.172 Y45.399 Z-18.000 F60.000 
G2 X90.024 Y46.203 Z-18.000 I-0.172 J0.976 F120.000 
G2 X90.828 Y47.351 Z-18.000 I0.976 J0.172 F120.000 
G2 X91.172 Y45.399 Z-18.000 I0.172 J-0.976 F120.000 
G0 Z10.000 
G0 X92.215 Y39.484 Z10.000 
G0 X92.215 Y39.484 Z3.000 
G1 X92.215 Y39.484 Z-18.000 F60.000 
G2 X89.785 Y53.266 Z-18.000 I-1.215 J6.891 F120.000 
G2 X92.215 Y39.484 Z-18.000 I1.215 J-6.891 F120.000 
G0 Z10.000 
G0 X91.172 Y45.399 Z10.000 
G0 X91.172 Y45.399 Z3.000 
G1 X91.172 Y45.399 Z-19.000 F60.000 
G2 X90.024 Y46.203 Z-19.000 I-0.172 J0.976 F120.000 
G2 X90.828 Y47.351 Z-19.000 I0.976 J0.172 F120.000 
G2 X91.172 Y45.399 Z-19.000 I0.172 J-0.976 F120.000 
G0 Z10.000 
G0 X92.215 Y39.484 Z10.000 
G0 X92.215 Y39.484 Z3.000 
G1 X92.215 Y39.484 Z-19.000 F60.000 
G2 X89.785 Y53.266 Z-19.000 I-1.215 J6.891 F120.000 
G2 X92.215 Y39.484 Z-19.000 I1.215 J-6.891 F120.000 
G0 Z10.000 
G0 Z10.000 
(finish operation: Kytkimenreikä)
(begin postamble)
M05
G17 G54 G90 G80 G40
M2
