( pcb2gcode 2.4.0 )
( Software-independent Gcode )

G94 ( Millimeters per minute feed rate. )
G21 ( Units == Millimeters. )

G90 ( Absolute coordinates. )
G00 S1000 ( RPM spindle speed. )
G64 P0.01016 ( set maximum deviation from commanded toolpath )
G01 F100.00000 ( Feedrate. )


G00 Z15.00000 (Retract to tool change height)
T0
M5      (Spindle stop.)
G04 P1.00000 (Wait for spindle to stop)
(MSG, Change tool bit to mill diameter 0.21550mm)
M6      (Tool change.)
M0      (Temporary machine stop.)
M3 ( Spindle on clockwise. )
G04 P1.00000 (Wait for spindle to get up to speed)
G04 P0 ( dwell for no time -- G64 should not smooth over this point )
G00 Z2.00000 ( retract )

G00 X0.76040 Y0.19472 ( rapid move to begin. )
G01 F50.00000
( Mill infeed pass 1/1 )
G01 Z-0.10000
G04 P0 ( dwell for no time -- G64 should not smooth over this point )
G01 F100.00000
G01 X0.76040 Y0.19472
G01 X0.76040 Y4.19471
G01 X0.76627 Y4.23484
G01 X0.77531 Y4.26148
G01 X0.80660 Y4.30624
G01 X0.85136 Y4.33753
G01 X0.87800 Y4.34657
G01 X0.91816 Y4.35244
G01 X0.95829 Y4.34657
G01 X0.98494 Y4.33753
G01 X1.02969 Y4.30624
G01 X1.06098 Y4.26148
G01 X1.07539 Y4.20525
G01 X1.07589 Y2.83019
G01 X1.42616 Y3.00538
G01 X1.45755 Y3.01544
G01 X2.06837 Y3.01854
G01 X2.10099 Y3.01356
G01 X2.51198 Y2.81226
G01 X2.55334 Y2.78260
G01 X2.57340 Y2.75499
G01 X2.77322 Y2.36103
G01 X2.78201 Y2.33703
G01 X2.79016 Y2.28994
G01 X2.79016 Y0.19472
G01 X2.77945 Y0.13762
G01 X2.77193 Y0.12169
G01 X2.74348 Y0.08479
G01 X2.71099 Y0.05812
G01 X2.64297 Y0.03746
G01 X2.60114 Y0.04161
G01 X2.55384 Y0.05812
G01 X2.52136 Y0.08479
G01 X2.49291 Y0.12169
G01 X2.48539 Y0.13762
G01 X2.47467 Y0.19472
G01 X2.47467 Y2.25268
G01 X2.32435 Y2.55331
G01 X2.02374 Y2.70363
G01 X1.52682 Y2.70363
G01 X1.20205 Y2.54124
G01 X1.07589 Y2.41508
G01 X1.07472 Y0.17889
G01 X1.05473 Y0.11613
G01 X1.04300 Y0.09858
G01 X1.00564 Y0.06523
G01 X0.96347 Y0.04399
G01 X0.90134 Y0.03815
G01 X0.86716 Y0.04613
G01 X0.83650 Y0.05982
G01 X0.80035 Y0.09073
G01 X0.77993 Y0.11928
G01 X0.77346 Y0.13564
G01 X0.76040 Y0.19472
G04 P0 ( dwell for no time -- G64 should not smooth over this point )
G00 Z2.00000 ( retract )

G00 X3.80802 Y2.86136 ( rapid move to begin. )
G01 F50.00000
( Mill infeed pass 1/1 )
G01 Z-0.10000
G04 P0 ( dwell for no time -- G64 should not smooth over this point )
G01 F100.00000
G01 X3.80802 Y2.86136
G01 X3.81754 Y2.80761
G01 X3.84081 Y2.76616
G01 X3.87055 Y2.73642
G01 X3.91201 Y2.71315
G01 X3.96578 Y2.70363
G01 X4.37957 Y2.70363
G01 X4.38310 Y0.73429
G01 X4.39311 Y0.70287
G01 X4.59552 Y0.29982
G01 X4.61612 Y0.27363
G01 X4.65724 Y0.24402
G01 X5.06052 Y0.04448
G01 X5.09275 Y0.03932
G01 X5.48891 Y0.03696
G01 X5.52971 Y0.04282
G01 X5.56257 Y0.05519
G01 X5.59948 Y0.08364
G01 X5.62072 Y0.10706
G01 X5.63425 Y0.13564
G01 X5.64680 Y0.18415
G01 X5.64266 Y0.22598
G01 X5.62854 Y0.26855
G01 X5.59948 Y0.30577
G01 X5.56257 Y0.33421
G01 X5.51058 Y0.35039
G01 X5.14586 Y0.35245
G01 X4.84525 Y0.50277
G01 X4.69494 Y0.80335
G01 X4.69494 Y2.70363
G01 X5.48958 Y2.70363
G01 X5.52971 Y2.70949
G01 X5.55635 Y2.71854
G01 X5.58477 Y2.73642
G01 X5.60111 Y2.74983
G01 X5.62534 Y2.78237
G01 X5.63778 Y2.80761
G01 X5.64525 Y2.84035
G01 X5.64731 Y2.86139
G01 X5.64144 Y2.90152
G01 X5.63240 Y2.92816
G01 X5.60111 Y2.97292
G01 X5.55635 Y3.00421
G01 X5.51058 Y3.01706
G01 X4.69494 Y3.01912
G01 X4.69443 Y4.20525
G01 X4.68541 Y4.24845
G01 X4.66214 Y4.28991
G01 X4.63240 Y4.31965
G01 X4.60398 Y4.33753
G01 X4.57733 Y4.34657
G01 X4.53720 Y4.35244
G01 X4.49704 Y4.34657
G01 X4.47040 Y4.33753
G01 X4.44198 Y4.31965
G01 X4.41223 Y4.28991
G01 X4.39435 Y4.26148
G01 X4.38150 Y4.21571
G01 X4.37944 Y3.01912
G01 X3.96578 Y3.01912
G01 X3.91201 Y3.00960
G01 X3.87055 Y2.98633
G01 X3.84081 Y2.95659
G01 X3.81754 Y2.91513
G01 X3.80802 Y2.86136
G04 P0 ( dwell for no time -- G64 should not smooth over this point )
G00 Z2.00000 ( retract )

G00 X6.09374 Y2.86136 ( rapid move to begin. )
G01 F50.00000
( Mill infeed pass 1/1 )
G01 Z-0.10000
G04 P0 ( dwell for no time -- G64 should not smooth over this point )
G01 F100.00000
G01 X6.09374 Y2.86136
G01 X6.10326 Y2.80761
G01 X6.12653 Y2.76616
G01 X6.15627 Y2.73642
G01 X6.19773 Y2.71315
G01 X6.25150 Y2.70363
G01 X6.66529 Y2.70363
G01 X6.66882 Y0.73429
G01 X6.67883 Y0.70287
G01 X6.88124 Y0.29982
G01 X6.90184 Y0.27363
G01 X6.94296 Y0.24402
G01 X7.34624 Y0.04448
G01 X7.37847 Y0.03932
G01 X7.77464 Y0.03696
G01 X7.81543 Y0.04282
G01 X7.84830 Y0.05519
G01 X7.88520 Y0.08364
G01 X7.90644 Y0.10706
G01 X7.91997 Y0.13564
G01 X7.93252 Y0.18415
G01 X7.92838 Y0.22598
G01 X7.91426 Y0.26855
G01 X7.88520 Y0.30577
G01 X7.84830 Y0.33421
G01 X7.83237 Y0.34173
G01 X7.78584 Y0.35194
G01 X7.43158 Y0.35245
G01 X7.13097 Y0.50277
G01 X6.98066 Y0.80335
G01 X6.98066 Y2.70363
G01 X7.77530 Y2.70363
G01 X7.81543 Y2.70949
G01 X7.84207 Y2.71854
G01 X7.87049 Y2.73642
G01 X7.88683 Y2.74983
G01 X7.91106 Y2.78237
G01 X7.92350 Y2.80761
G01 X7.93097 Y2.84035
G01 X7.93303 Y2.86139
G01 X7.92716 Y2.90152
G01 X7.91812 Y2.92816
G01 X7.88683 Y2.97292
G01 X7.84207 Y3.00421
G01 X7.79630 Y3.01706
G01 X6.98066 Y3.01912
G01 X6.98066 Y4.19471
G01 X6.97113 Y4.24845
G01 X6.95869 Y4.27370
G01 X6.93445 Y4.30624
G01 X6.88970 Y4.33753
G01 X6.86305 Y4.34657
G01 X6.82292 Y4.35244
G01 X6.78277 Y4.34657
G01 X6.75612 Y4.33753
G01 X6.72770 Y4.31965
G01 X6.69795 Y4.28991
G01 X6.68007 Y4.26148
G01 X6.66722 Y4.21571
G01 X6.66516 Y3.01912
G01 X6.25150 Y3.01912
G01 X6.19773 Y3.00960
G01 X6.15627 Y2.98633
G01 X6.12653 Y2.95659
G01 X6.10326 Y2.91513
G01 X6.09374 Y2.86136
G04 P0 ( dwell for no time -- G64 should not smooth over this point )
G00 Z2.00000 ( retract )

G00 X9.26638 Y0.48268 ( rapid move to begin. )
G01 F50.00000
( Mill infeed pass 1/1 )
G01 Z-0.10000
G04 P0 ( dwell for no time -- G64 should not smooth over this point )
G01 F100.00000
G01 X9.26638 Y0.48268
G01 X9.26638 Y2.57340
G01 X9.52683 Y2.70363
G01 X10.21423 Y2.70363
G01 X10.53899 Y2.54124
G01 X10.69325 Y2.38699
G01 X10.85563 Y2.06220
G01 X10.85563 Y0.99385
G01 X10.69325 Y0.66909
G01 X10.53899 Y0.51483
G01 X10.21423 Y0.35245
G01 X9.52683 Y0.35245
G01 X9.26638 Y0.48268
G04 P0 ( dwell for no time -- G64 should not smooth over this point )
G00 Z2.00000 ( retract )

G00 X8.95088 Y-1.13861 ( rapid move to begin. )
G01 F50.00000
( Mill infeed pass 1/1 )
G01 Z-0.10000
G04 P0 ( dwell for no time -- G64 should not smooth over this point )
G01 F100.00000
G01 X8.95088 Y-1.13861
G01 X8.95088 Y2.86139
G01 X8.96041 Y2.91513
G01 X8.98368 Y2.95659
G01 X9.00768 Y2.98221
G01 X9.04809 Y3.00543
G01 X9.08832 Y3.01765
G01 X9.13834 Y3.01480
G01 X9.17857 Y3.00258
G01 X9.23003 Y2.96151
G01 X9.24761 Y2.93522
G01 X9.25383 Y2.91869
G01 X9.43432 Y3.00746
G01 X9.46554 Y3.01729
G01 X10.25919 Y3.01854
G01 X10.29170 Y3.01351
G01 X10.70948 Y2.80802
G01 X10.73785 Y2.78765
G01 X10.95101 Y2.57249
G01 X11.15934 Y2.15496
G01 X11.17054 Y2.10716
G01 X11.17054 Y0.94889
G01 X11.16551 Y0.91638
G01 X10.96002 Y0.49860
G01 X10.93965 Y0.47023
G01 X10.72449 Y0.25707
G01 X10.30699 Y0.04874
G01 X10.25919 Y0.03754
G01 X9.46554 Y0.03879
G01 X9.43432 Y0.04862
G01 X9.26638 Y0.13122
G01 X9.26638 Y-1.13858
G01 X9.26051 Y-1.17874
G01 X9.25147 Y-1.20538
G01 X9.23359 Y-1.23381
G01 X9.20384 Y-1.26355
G01 X9.16899 Y-1.28433
G01 X9.12965 Y-1.29428
G01 X9.10158 Y-1.29611
G01 X9.04827 Y-1.28433
G01 X8.99709 Y-1.25014
G01 X8.96579 Y-1.20538
G01 X8.95675 Y-1.17874
G01 X8.95088 Y-1.13861
G04 P0 ( dwell for no time -- G64 should not smooth over this point )
G00 Z2.00000 ( retract )

G00 X12.38011 Y0.38656 ( rapid move to begin. )
G01 F50.00000
( Mill infeed pass 1/1 )
G01 Z-0.10000
G04 P0 ( dwell for no time -- G64 should not smooth over this point )
G01 F100.00000
G01 X12.38011 Y0.38656
G01 X12.38537 Y0.34486
G01 X12.39845 Y0.31016
G01 X12.41966 Y0.28219
G01 X12.45326 Y0.25204
G01 X12.86274 Y0.04867
G01 X12.91039 Y0.03754
G01 X13.70414 Y0.03881
G01 X13.73541 Y0.04867
G01 X14.13104 Y0.24381
G01 X14.15936 Y0.26241
G01 X14.18359 Y0.28656
G01 X14.39527 Y0.70231
G01 X14.40165 Y0.71783
G01 X14.40685 Y0.75093
G01 X14.40685 Y0.97180
G01 X14.40177 Y1.00449
G01 X14.20216 Y1.40797
G01 X14.18778 Y1.42974
G01 X14.16213 Y1.45837
G01 X14.13805 Y1.47467
G01 X13.72029 Y1.68013
G01 X13.68786 Y1.68519
G01 X13.14592 Y1.68575
G01 X12.84526 Y1.83609
G01 X12.69495 Y2.13670
G01 X12.69495 Y2.25268
G01 X12.84526 Y2.55331
G01 X13.14585 Y2.70363
G01 X13.64280 Y2.70363
G01 X13.99045 Y2.52981
G01 X14.04912 Y2.51508
G01 X14.08422 Y2.51488
G01 X14.13289 Y2.53055
G01 X14.17109 Y2.55885
G01 X14.19687 Y2.59204
G01 X14.21315 Y2.62923
G01 X14.21808 Y2.66951
G01 X14.21282 Y2.71122
G01 X14.19436 Y2.75504
G01 X14.15776 Y2.79550
G01 X13.74353 Y3.00533
G01 X13.71209 Y3.01544
G01 X13.10122 Y3.01854
G01 X13.06848 Y3.01353
G01 X13.05309 Y3.00733
G01 X12.65062 Y2.80802
G01 X12.62654 Y2.79171
G01 X12.59304 Y2.75262
G01 X12.38689 Y2.33782
G01 X12.38181 Y2.30513
G01 X12.38181 Y2.08425
G01 X12.38308 Y2.06771
G01 X12.39312 Y2.03619
G01 X12.58651 Y1.64808
G01 X12.60490 Y1.62009
G01 X12.62931 Y1.59573
G01 X12.65725 Y1.57734
G01 X13.06058 Y1.37777
G01 X13.09296 Y1.37264
G01 X13.64259 Y1.37038
G01 X13.94341 Y1.21996
G01 X14.09372 Y0.91935
G01 X14.09372 Y0.80335
G01 X13.94341 Y0.50277
G01 X13.64280 Y0.35245
G01 X12.95524 Y0.35245
G01 X12.59837 Y0.52989
G01 X12.57874 Y0.53736
G01 X12.53858 Y0.54226
G01 X12.51052 Y0.54059
G01 X12.47836 Y0.53083
G01 X12.45908 Y0.52222
G01 X12.42710 Y0.49723
G01 X12.41257 Y0.48189
G01 X12.39261 Y0.44658
G01 X12.38341 Y0.41999
G01 X12.38011 Y0.38656
G04 P0 ( dwell for no time -- G64 should not smooth over this point )
G00 Z2.00000 ( retract )

G00 X15.61755 Y2.48044 ( rapid move to begin. )
G01 F50.00000
( Mill infeed pass 1/1 )
G01 Z-0.10000
G04 P0 ( dwell for no time -- G64 should not smooth over this point )
G01 F100.00000
G01 X15.61755 Y2.48044
G01 X15.62956 Y2.54079
G01 X15.66375 Y2.59197
G01 X15.86205 Y2.78956
G01 X15.90487 Y2.81643
G01 X15.96184 Y2.82844
G01 X16.01775 Y2.81973
G01 X16.04477 Y2.80667
G01 X16.07731 Y2.78244
G01 X16.28120 Y2.57564
G01 X16.30197 Y2.54079
G01 X16.31399 Y2.48044
G01 X16.30197 Y2.42006
G01 X16.28120 Y2.38521
G01 X16.07731 Y2.17838
G01 X16.03256 Y2.14709
G01 X16.00591 Y2.13804
G01 X15.96575 Y2.13218
G01 X15.91198 Y2.14170
G01 X15.87053 Y2.16499
G01 X15.66375 Y2.36888
G01 X15.62956 Y2.42006
G01 X15.61755 Y2.48044
G01 X15.61755 Y0.38517
G01 X15.62956 Y0.32482
G01 X15.66375 Y0.27363
G01 X15.86205 Y0.07605
G01 X15.90540 Y0.04897
G01 X15.95872 Y0.03719
G01 X15.98679 Y0.03901
G01 X16.02613 Y0.04897
G01 X16.06949 Y0.07605
G01 X16.26779 Y0.27363
G01 X16.30197 Y0.32482
G01 X16.31193 Y0.36416
G01 X16.31193 Y0.40620
G01 X16.30197 Y0.44554
G01 X16.27490 Y0.48890
G01 X16.06949 Y0.69431
G01 X16.03172 Y0.71890
G01 X15.98206 Y0.73165
G01 X15.94167 Y0.73091
G01 X15.90487 Y0.72118
G01 X15.85422 Y0.68720
G01 X15.65664 Y0.48890
G01 X15.62956 Y0.44554
G01 X15.61755 Y0.38517
G04 P0 ( dwell for no time -- G64 should not smooth over this point )
G00 Z2.00000 ( retract )

G00 X17.14228 Y-0.74806 ( rapid move to begin. )
G01 F50.00000
( Mill infeed pass 1/1 )
G01 Z-0.10000
G04 P0 ( dwell for no time -- G64 should not smooth over this point )
G01 F100.00000
G01 X17.14228 Y-0.74806
G01 X17.14602 Y-0.79540
G01 X17.16801 Y-0.84541
G01 X17.20586 Y-0.88481
G01 X17.24825 Y-0.90627
G01 X17.28950 Y-0.91445
G01 X17.33001 Y-0.91234
G01 X17.35023 Y-0.90617
G01 X17.39260 Y-0.88461
G01 X17.43034 Y-0.84516
G01 X20.85891 Y4.29765
G01 X20.88241 Y4.35455
G01 X20.88350 Y4.40916
G01 X20.87618 Y4.43631
G01 X20.85873 Y4.47294
G01 X20.82089 Y4.51234
G01 X20.79653 Y4.52636
G01 X20.75828 Y4.53992
G01 X20.70367 Y4.54101
G01 X20.64586 Y4.51998
G01 X20.62356 Y4.50284
G01 X20.59640 Y4.47269
G01 X17.16783 Y-0.67013
G01 X17.15046 Y-0.70681
G01 X17.14228 Y-0.74806
G04 P0 ( dwell for no time -- G64 should not smooth over this point )
G00 Z2.00000 ( retract )

G00 X21.33277 Y-0.74806 ( rapid move to begin. )
G01 F50.00000
( Mill infeed pass 1/1 )
G01 Z-0.10000
G04 P0 ( dwell for no time -- G64 should not smooth over this point )
G01 F100.00000
G01 X21.33277 Y-0.74806
G01 X21.33651 Y-0.79540
G01 X21.35850 Y-0.84541
G01 X21.39635 Y-0.88481
G01 X21.43874 Y-0.90627
G01 X21.47999 Y-0.91445
G01 X21.52051 Y-0.91234
G01 X21.54072 Y-0.90617
G01 X21.58309 Y-0.88461
G01 X21.62084 Y-0.84516
G01 X25.04940 Y4.29765
G01 X25.07290 Y4.35455
G01 X25.07399 Y4.40916
G01 X25.06668 Y4.43631
G01 X25.04923 Y4.47294
G01 X25.01138 Y4.51234
G01 X24.98702 Y4.52636
G01 X24.94877 Y4.53992
G01 X24.89416 Y4.54101
G01 X24.83635 Y4.51998
G01 X24.81405 Y4.50284
G01 X24.78689 Y4.47269
G01 X21.35833 Y-0.67013
G01 X21.34095 Y-0.70681
G01 X21.33277 Y-0.74806
G04 P0 ( dwell for no time -- G64 should not smooth over this point )
G00 Z2.00000 ( retract )

G00 X25.90383 Y0.94889 ( rapid move to begin. )
G01 F50.00000
( Mill infeed pass 1/1 )
G01 Z-0.10000
G04 P0 ( dwell for no time -- G64 should not smooth over this point )
G01 F100.00000
G01 X25.90383 Y0.94889
G01 X25.90383 Y2.10716
G01 X25.90886 Y2.13967
G01 X26.12334 Y2.57249
G01 X26.33650 Y2.78765
G01 X26.36487 Y2.80802
G01 X26.76738 Y3.00733
G01 X26.79875 Y3.01727
G01 X27.60886 Y3.01729
G01 X27.64008 Y3.00746
G01 X27.82057 Y2.91869
G01 X27.82918 Y2.93995
G01 X27.85585 Y2.97243
G01 X27.89583 Y3.00258
G01 X27.91536 Y3.01069
G01 X27.96497 Y3.01765
G01 X27.99999 Y3.01534
G01 X28.05044 Y2.99446
G01 X28.07683 Y2.97129
G01 X28.10528 Y2.93439
G01 X28.11280 Y2.91846
G01 X28.12351 Y2.86139
G01 X28.12280 Y-0.38913
G01 X28.10657 Y-0.44778
G01 X27.89781 Y-0.85636
G01 X27.69006 Y-1.06505
G01 X27.66225 Y-1.08504
G01 X27.26728 Y-1.28260
G01 X27.23589 Y-1.29266
G01 X26.62504 Y-1.29576
G01 X26.60853 Y-1.29454
G01 X26.57706 Y-1.28463
G01 X26.18141 Y-1.08948
G01 X26.13464 Y-1.05410
G01 X26.11531 Y-1.02481
G01 X26.09680 Y-0.97826
G01 X26.09566 Y-0.93624
G01 X26.10434 Y-0.89223
G01 X26.11849 Y-0.86396
G01 X26.16441 Y-0.81674
G01 X26.18278 Y-0.80630
G01 X26.23111 Y-0.79317
G01 X26.26614 Y-0.79108
G01 X26.32202 Y-0.80703
G01 X26.66967 Y-0.98085
G01 X27.16662 Y-0.98085
G01 X27.49139 Y-0.81846
G01 X27.64564 Y-0.66421
G01 X27.80802 Y-0.33942
G01 X27.80802 Y0.13122
G01 X27.64008 Y0.04862
G01 X27.60886 Y0.03879
G01 X26.81519 Y0.03754
G01 X26.76738 Y0.04874
G01 X26.34986 Y0.25707
G01 X26.13472 Y0.47023
G01 X26.11435 Y0.49860
G01 X25.91504 Y0.90109
G01 X25.90383 Y0.94889
G04 P0 ( dwell for no time -- G64 should not smooth over this point )
G00 Z2.00000 ( retract )

G00 X26.21874 Y0.99385 ( rapid move to begin. )
G01 F50.00000
( Mill infeed pass 1/1 )
G01 Z-0.10000
G04 P0 ( dwell for no time -- G64 should not smooth over this point )
G01 F100.00000
G01 X26.21874 Y0.99385
G01 X26.21874 Y2.06220
G01 X26.38113 Y2.38699
G01 X26.53538 Y2.54124
G01 X26.86014 Y2.70363
G01 X27.54757 Y2.70363
G01 X27.80802 Y2.57340
G01 X27.80802 Y0.48268
G01 X27.54757 Y0.35245
G01 X26.86014 Y0.35245
G01 X26.53538 Y0.51483
G01 X26.38113 Y0.66909
G01 X26.21874 Y0.99385
G04 P0 ( dwell for no time -- G64 should not smooth over this point )
G00 Z2.00000 ( retract )

G00 X29.71277 Y0.19472 ( rapid move to begin. )
G01 F50.00000
( Mill infeed pass 1/1 )
G01 Z-0.10000
G04 P0 ( dwell for no time -- G64 should not smooth over this point )
G01 F100.00000
G01 X29.71277 Y0.19472
G01 X29.72478 Y0.13434
G01 X29.75414 Y0.08832
G01 X29.77530 Y0.06975
G01 X29.81015 Y0.04897
G01 X29.86347 Y0.03719
G01 X29.89153 Y0.03901
G01 X29.93088 Y0.04897
G01 X29.97690 Y0.07833
G01 X29.99547 Y0.09949
G01 X30.01625 Y0.13434
G01 X30.02775 Y0.18415
G01 X30.02775 Y2.87193
G01 X30.01625 Y2.92174
G01 X29.99547 Y2.95659
G01 X29.97690 Y2.97774
G01 X29.93088 Y3.00711
G01 X29.87756 Y3.01889
G01 X29.84950 Y3.01706
G01 X29.81015 Y3.00711
G01 X29.76413 Y2.97774
G01 X29.74556 Y2.95659
G01 X29.72478 Y2.92174
G01 X29.71328 Y2.87193
G01 X29.71277 Y0.19472
G01 X29.52229 Y4.00423
G01 X29.52816 Y3.96408
G01 X29.53720 Y3.93743
G01 X29.56850 Y3.89268
G01 X29.77530 Y3.68879
G01 X29.81676 Y3.66552
G01 X29.87050 Y3.65600
G01 X29.93088 Y3.66801
G01 X29.96573 Y3.68879
G01 X30.17256 Y3.89268
G01 X30.18968 Y3.91498
G01 X30.20944 Y3.95150
G01 X30.21665 Y3.98188
G01 X30.21815 Y4.01798
G01 X30.20398 Y4.07088
G01 X30.18462 Y4.10139
G01 X29.98206 Y4.30624
G01 X29.93088 Y4.34043
G01 X29.87403 Y4.35239
G01 X29.85646 Y4.35153
G01 X29.81145 Y4.33939
G01 X29.78018 Y4.32399
G01 X29.76682 Y4.31272
G01 X29.56151 Y4.10807
G01 X29.53182 Y4.05798
G01 X29.52229 Y4.00423
G04 P0 ( dwell for no time -- G64 should not smooth over this point )
G00 Z2.00000 ( retract )

G00 X31.04634 Y2.85432 ( rapid move to begin. )
G01 F50.00000
( Mill infeed pass 1/1 )
G01 Z-0.10000
G04 P0 ( dwell for no time -- G64 should not smooth over this point )
G01 F100.00000
G01 X31.04634 Y2.85432
G01 X31.04817 Y2.88239
G01 X31.05813 Y2.92174
G01 X31.07891 Y2.95659
G01 X31.10865 Y2.98633
G01 X31.14350 Y3.00711
G01 X31.16372 Y3.01325
G01 X31.20387 Y3.01912
G01 X31.61754 Y3.01912
G01 X31.61960 Y4.21571
G01 X31.62955 Y4.25506
G01 X31.65033 Y4.28991
G01 X31.66890 Y4.31107
G01 X31.71492 Y4.34043
G01 X31.77530 Y4.35244
G01 X31.81543 Y4.34657
G01 X31.85429 Y4.33047
G01 X31.88167 Y4.31107
G01 X31.91106 Y4.27370
G01 X31.92716 Y4.23484
G01 X31.93303 Y4.19471
G01 X31.93303 Y3.01912
G01 X32.74868 Y3.01706
G01 X32.78802 Y3.00711
G01 X32.83405 Y2.97774
G01 X32.86343 Y2.94038
G01 X32.87954 Y2.90152
G01 X32.88518 Y2.86842
G01 X32.88335 Y2.84035
G01 X32.87339 Y2.80101
G01 X32.86343 Y2.78237
G01 X32.84403 Y2.75499
G01 X32.82287 Y2.73642
G01 X32.78802 Y2.71564
G01 X32.76780 Y2.70949
G01 X32.72767 Y2.70363
G01 X31.93303 Y2.70363
G01 X31.93303 Y0.80335
G01 X32.08335 Y0.50277
G01 X32.38396 Y0.35245
G01 X32.73821 Y0.35194
G01 X32.78475 Y0.34173
G01 X32.80067 Y0.33421
G01 X32.83758 Y0.30577
G01 X32.85251 Y0.29083
G01 X32.87235 Y0.25377
G01 X32.88424 Y0.21052
G01 X32.88424 Y0.17889
G01 X32.87235 Y0.13564
G01 X32.85251 Y0.09858
G01 X32.80067 Y0.05519
G01 X32.76780 Y0.04282
G01 X32.72701 Y0.03696
G01 X32.33085 Y0.03932
G01 X32.29861 Y0.04448
G01 X31.89534 Y0.24402
G01 X31.85422 Y0.27363
G01 X31.83362 Y0.29982
G01 X31.63120 Y0.70287
G01 X31.62120 Y0.73429
G01 X31.61767 Y2.70363
G01 X31.20387 Y2.70363
G01 X31.16372 Y2.70949
G01 X31.12486 Y2.72560
G01 X31.08749 Y2.75499
G01 X31.05813 Y2.80101
G01 X31.04634 Y2.85432
G04 P0 ( dwell for no time -- G64 should not smooth over this point )
G00 Z2.00000 ( retract )

G00 X33.90326 Y0.19472 ( rapid move to begin. )
G01 F50.00000
( Mill infeed pass 1/1 )
G01 Z-0.10000
G04 P0 ( dwell for no time -- G64 should not smooth over this point )
G01 F100.00000
G01 X33.90326 Y0.19472
G01 X33.90326 Y4.19471
G01 X33.91527 Y4.25506
G01 X33.93605 Y4.28991
G01 X33.95462 Y4.31107
G01 X34.00064 Y4.34043
G01 X34.06102 Y4.35244
G01 X34.12137 Y4.34043
G01 X34.16739 Y4.31107
G01 X34.18596 Y4.28991
G01 X34.20674 Y4.25506
G01 X34.21824 Y4.20525
G01 X34.21875 Y2.83019
G01 X34.56902 Y3.00538
G01 X34.60041 Y3.01544
G01 X35.21123 Y3.01854
G01 X35.24385 Y3.01356
G01 X35.65484 Y2.81226
G01 X35.69619 Y2.78260
G01 X35.71626 Y2.75499
G01 X35.91608 Y2.36103
G01 X35.92487 Y2.33703
G01 X35.93302 Y2.28994
G01 X35.93302 Y0.19472
G01 X35.91997 Y0.13564
G01 X35.91349 Y0.11928
G01 X35.89304 Y0.09073
G01 X35.85070 Y0.05649
G01 X35.78583 Y0.03746
G01 X35.74400 Y0.04161
G01 X35.69985 Y0.05649
G01 X35.68474 Y0.06556
G01 X35.64613 Y0.10417
G01 X35.63059 Y0.13564
G01 X35.61753 Y0.19472
G01 X35.61753 Y2.25268
G01 X35.46721 Y2.55331
G01 X35.16660 Y2.70363
G01 X34.66968 Y2.70363
G01 X34.34491 Y2.54124
G01 X34.21875 Y2.41508
G01 X34.21824 Y0.18415
G01 X34.20674 Y0.13434
G01 X34.17501 Y0.08570
G01 X34.14715 Y0.06431
G01 X34.10204 Y0.04254
G01 X34.06021 Y0.03843
G01 X34.01060 Y0.04539
G01 X33.99107 Y0.05349
G01 X33.95109 Y0.08364
G01 X33.92442 Y0.11613
G01 X33.90791 Y0.16342
G01 X33.90326 Y0.19472
G04 P0 ( dwell for no time -- G64 should not smooth over this point )
G00 Z2.00000 ( retract )

G00 X37.52230 Y0.76614 ( rapid move to begin. )
G01 F50.00000
( Mill infeed pass 1/1 )
G01 Z-0.10000
G04 P0 ( dwell for no time -- G64 should not smooth over this point )
G01 F100.00000
G01 X37.52230 Y0.76614
G01 X37.52230 Y2.86139
G01 X37.53536 Y2.92044
G01 X37.54183 Y2.93680
G01 X37.56228 Y2.96535
G01 X37.60462 Y2.99959
G01 X37.64877 Y3.01447
G01 X37.69060 Y3.01861
G01 X37.73912 Y3.00606
G01 X37.77059 Y2.99052
G01 X37.80920 Y2.95191
G01 X37.82474 Y2.92044
G01 X37.83663 Y2.87718
G01 X37.83780 Y0.80335
G01 X37.98811 Y0.50277
G01 X38.28872 Y0.35245
G01 X38.78565 Y0.35245
G01 X39.11044 Y0.51483
G01 X39.23660 Y0.64099
G01 X39.23711 Y2.87193
G01 X39.24861 Y2.92174
G01 X39.28034 Y2.97038
G01 X39.30820 Y2.99176
G01 X39.35331 Y3.01353
G01 X39.39515 Y3.01765
G01 X39.44475 Y3.01069
G01 X39.46428 Y3.00258
G01 X39.50426 Y2.97243
G01 X39.53093 Y2.93995
G01 X39.54744 Y2.89265
G01 X39.55209 Y2.86139
G01 X39.55209 Y0.19472
G01 X39.54008 Y0.13434
G01 X39.50835 Y0.08570
G01 X39.48049 Y0.06431
G01 X39.43873 Y0.04364
G01 X39.42166 Y0.03934
G01 X39.36357 Y0.03998
G01 X39.31270 Y0.05982
G01 X39.27658 Y0.09073
G01 X39.25324 Y0.12568
G01 X39.23967 Y0.16373
G01 X39.23741 Y0.22558
G01 X38.89345 Y0.05359
G01 X38.84765 Y0.03983
G01 X38.82278 Y0.03696
G01 X38.24366 Y0.03754
G01 X38.21133 Y0.04254
G01 X37.80048 Y0.24381
G01 X37.74984 Y0.28390
G01 X37.73366 Y0.30762
G01 X37.53902 Y0.69543
G01 X37.52517 Y0.74138
G01 X37.52230 Y0.76614
G04 P0 ( dwell for no time -- G64 should not smooth over this point )
G00 Z2.00000 ( retract )

G00 X41.14135 Y0.19472 ( rapid move to begin. )
G01 F50.00000
( Mill infeed pass 1/1 )
G01 Z-0.10000
G04 P0 ( dwell for no time -- G64 should not smooth over this point )
G01 F100.00000
G01 X41.14135 Y0.19472
G01 X41.14135 Y4.19471
G01 X41.15336 Y4.25506
G01 X41.17414 Y4.28991
G01 X41.19270 Y4.31107
G01 X41.23873 Y4.34043
G01 X41.29910 Y4.35244
G01 X41.35945 Y4.34043
G01 X41.40548 Y4.31107
G01 X41.42405 Y4.28991
G01 X41.44482 Y4.25506
G01 X41.45633 Y4.20525
G01 X41.45684 Y2.92486
G01 X41.62478 Y3.00746
G01 X41.65615 Y3.01729
G01 X42.47393 Y3.01544
G01 X42.50538 Y3.00538
G01 X42.91505 Y2.79895
G01 X43.12475 Y2.59215
G01 X43.14485 Y2.56451
G01 X43.34467 Y2.17056
G01 X43.36090 Y2.11188
G01 X43.36103 Y0.94884
G01 X43.34982 Y0.90109
G01 X43.15051 Y0.49860
G01 X43.13032 Y0.47041
G01 X42.92163 Y0.26266
G01 X42.50134 Y0.04879
G01 X42.44188 Y0.03696
G01 X41.65592 Y0.03881
G01 X41.62478 Y0.04862
G01 X41.44556 Y0.13675
G01 X41.41546 Y0.08832
G01 X41.37810 Y0.05893
G01 X41.33924 Y0.04282
G01 X41.29204 Y0.03719
G01 X41.25895 Y0.04282
G01 X41.22608 Y0.05519
G01 X41.17424 Y0.09858
G01 X41.15440 Y0.13564
G01 X41.14135 Y0.19472
G04 P0 ( dwell for no time -- G64 should not smooth over this point )
G00 Z2.00000 ( retract )

G00 X41.45684 Y0.48268 ( rapid move to begin. )
G01 F50.00000
( Mill infeed pass 1/1 )
G01 Z-0.10000
G04 P0 ( dwell for no time -- G64 should not smooth over this point )
G01 F100.00000
G01 X41.45684 Y0.48268
G01 X41.45684 Y2.57340
G01 X41.71729 Y2.70363
G01 X42.40472 Y2.70363
G01 X42.72948 Y2.54124
G01 X42.88373 Y2.38699
G01 X43.04612 Y2.06220
G01 X43.04612 Y0.99385
G01 X42.88373 Y0.66909
G01 X42.72948 Y0.51483
G01 X42.40472 Y0.35245
G01 X41.71729 Y0.35245
G01 X41.45684 Y0.48268
G04 P0 ( dwell for no time -- G64 should not smooth over this point )
G00 Z2.00000 ( retract )

G00 X44.57014 Y0.37813 ( rapid move to begin. )
G01 F50.00000
( Mill infeed pass 1/1 )
G01 Z-0.10000
G04 P0 ( dwell for no time -- G64 should not smooth over this point )
G01 F100.00000
G01 X44.57014 Y0.37813
G01 X44.57197 Y0.40620
G01 X44.58193 Y0.44554
G01 X44.61612 Y0.49672
G01 X44.81441 Y0.69431
G01 X44.85724 Y0.72118
G01 X44.91421 Y0.73320
G01 X44.97012 Y0.72448
G01 X44.99714 Y0.71143
G01 X45.02968 Y0.68720
G01 X45.23356 Y0.48039
G01 X45.25683 Y0.43894
G01 X45.26636 Y0.38519
G01 X45.26049 Y0.34503
G01 X45.25145 Y0.31839
G01 X45.22015 Y0.27363
G01 X45.02186 Y0.07605
G01 X44.97850 Y0.04897
G01 X44.92518 Y0.03719
G01 X44.89712 Y0.03901
G01 X44.85777 Y0.04897
G01 X44.80659 Y0.08316
G01 X44.60900 Y0.28146
G01 X44.58193 Y0.32482
G01 X44.57014 Y0.37813
G04 P0 ( dwell for no time -- G64 should not smooth over this point )
G00 Z2.00000 ( retract )

G00 X46.47527 Y2.10698 ( rapid move to begin. )
G01 F50.00000
( Mill infeed pass 1/1 )
G01 Z-0.10000
G04 P0 ( dwell for no time -- G64 should not smooth over this point )
G01 F100.00000
G01 X46.47527 Y2.10698
G01 X46.48027 Y2.13959
G01 X46.48647 Y2.15496
G01 X46.68578 Y2.55748
G01 X46.70598 Y2.58567
G01 X46.90166 Y2.78227
G01 X46.92802 Y2.80304
G01 X47.35419 Y3.01353
G01 X47.38654 Y3.01854
G01 X48.16864 Y3.01841
G01 X48.22678 Y3.00248
G01 X48.60775 Y2.81201
G01 X48.63366 Y2.79385
G01 X48.66541 Y2.76217
G01 X48.68570 Y2.71955
G01 X48.69464 Y2.67381
G01 X48.68586 Y2.62009
G01 X48.67118 Y2.58818
G01 X48.62708 Y2.54163
G01 X48.59604 Y2.52524
G01 X48.55693 Y2.51440
G01 X48.51636 Y2.51518
G01 X48.47603 Y2.52618
G01 X48.11913 Y2.70363
G01 X47.43158 Y2.70363
G01 X47.10681 Y2.54124
G01 X46.95256 Y2.38699
G01 X46.79018 Y2.06220
G01 X46.79018 Y0.99385
G01 X46.95256 Y0.66909
G01 X47.10681 Y0.51483
G01 X47.43158 Y0.35245
G01 X48.11898 Y0.35245
G01 X48.46665 Y0.52629
G01 X48.49670 Y0.53612
G01 X48.54288 Y0.54254
G01 X48.57753 Y0.53701
G01 X48.62134 Y0.51854
G01 X48.66183 Y0.48189
G01 X48.68179 Y0.44656
G01 X48.69099 Y0.41999
G01 X48.69371 Y0.36546
G01 X48.68286 Y0.32634
G01 X48.66203 Y0.28981
G01 X48.63396 Y0.26058
G01 X48.61613 Y0.24935
G01 X48.21969 Y0.05075
G01 X48.20435 Y0.04448
G01 X48.17168 Y0.03932
G01 X47.37039 Y0.03879
G01 X47.33897 Y0.04867
G01 X46.92853 Y0.25268
G01 X46.69513 Y0.48313
G01 X46.48218 Y0.90856
G01 X46.47705 Y0.94122
G01 X46.47527 Y2.10698
G04 P0 ( dwell for no time -- G64 should not smooth over this point )
G00 Z2.00000 ( retract )

G00 X49.90325 Y0.95667 ( rapid move to begin. )
G01 F50.00000
( Mill infeed pass 1/1 )
G01 Z-0.10000
G04 P0 ( dwell for no time -- G64 should not smooth over this point )
G01 F100.00000
G01 X49.90325 Y0.95667
G01 X49.90384 Y2.10721
G01 X49.90887 Y2.13967
G01 X50.12337 Y2.57249
G01 X50.34989 Y2.79900
G01 X50.76739 Y3.00733
G01 X50.79876 Y3.01727
G01 X51.41849 Y3.01727
G01 X51.44986 Y3.00733
G01 X51.86733 Y2.79900
G01 X52.09388 Y2.57249
G01 X52.30221 Y2.15496
G01 X52.31214 Y2.12359
G01 X52.31214 Y0.93246
G01 X52.30221 Y0.90109
G01 X52.09388 Y0.48359
G01 X51.86733 Y0.25707
G01 X51.44986 Y0.04874
G01 X51.41826 Y0.03879
G01 X50.80737 Y0.03932
G01 X50.77450 Y0.04455
G01 X50.34331 Y0.26264
G01 X50.13455 Y0.47041
G01 X50.11458 Y0.49812
G01 X49.91933 Y0.88760
G01 X49.91052 Y0.91232
G01 X49.90325 Y0.95667
G04 P0 ( dwell for no time -- G64 should not smooth over this point )
G00 Z2.00000 ( retract )

G00 X50.21875 Y0.99385 ( rapid move to begin. )
G01 F50.00000
( Mill infeed pass 1/1 )
G01 Z-0.10000
G04 P0 ( dwell for no time -- G64 should not smooth over this point )
G01 F100.00000
G01 X50.21875 Y0.99385
G01 X50.21875 Y2.06220
G01 X50.38113 Y2.38699
G01 X50.53538 Y2.54124
G01 X50.86015 Y2.70363
G01 X51.35710 Y2.70363
G01 X51.68186 Y2.54124
G01 X51.83612 Y2.38699
G01 X51.99847 Y2.06220
G01 X51.99847 Y0.99385
G01 X51.83612 Y0.66909
G01 X51.68186 Y0.51483
G01 X51.35710 Y0.35245
G01 X50.86015 Y0.35245
G01 X50.53538 Y0.51483
G01 X50.38113 Y0.66909
G01 X50.21875 Y0.99385
G04 P0 ( dwell for no time -- G64 should not smooth over this point )
G00 Z2.00000 ( retract )

G00 X53.71277 Y0.19472 ( rapid move to begin. )
G01 F50.00000
( Mill infeed pass 1/1 )
G01 Z-0.10000
G04 P0 ( dwell for no time -- G64 should not smooth over this point )
G01 F100.00000
G01 X53.71277 Y0.19472
G01 X53.71277 Y2.86139
G01 X53.71742 Y2.89265
G01 X53.73154 Y2.93522
G01 X53.74912 Y2.96151
G01 X53.78303 Y2.99085
G01 X53.81343 Y3.00840
G01 X53.86700 Y3.01907
G01 X53.90180 Y3.01447
G01 X53.94909 Y2.99796
G01 X53.98158 Y2.97129
G01 X54.01003 Y2.93439
G01 X54.01754 Y2.91846
G01 X54.02621 Y2.88239
G01 X54.02826 Y2.83019
G01 X54.37856 Y3.00538
G01 X54.41018 Y3.01546
G01 X55.04533 Y3.01544
G01 X55.07721 Y3.00518
G01 X55.49283 Y2.79357
G01 X55.51683 Y2.76964
G01 X55.52570 Y2.75516
G01 X55.58483 Y2.63914
G01 X55.65285 Y2.76969
G01 X55.68993 Y2.80304
G01 X56.10088 Y3.00741
G01 X56.14853 Y3.01854
G01 X56.73537 Y3.01854
G01 X56.76776 Y3.01353
G01 X57.17865 Y2.81226
G01 X57.21899 Y2.78219
G01 X57.23819 Y2.76085
G01 X57.44012 Y2.36060
G01 X57.44868 Y2.33703
G01 X57.45683 Y2.28994
G01 X57.45683 Y0.19472
G01 X57.45218 Y0.16342
G01 X57.43806 Y0.12085
G01 X57.42048 Y0.09456
G01 X57.38658 Y0.06523
G01 X57.35617 Y0.04768
G01 X57.32010 Y0.03901
G01 X57.27807 Y0.03901
G01 X57.24200 Y0.04768
G01 X57.21160 Y0.06523
G01 X57.16793 Y0.10706
G01 X57.15439 Y0.13564
G01 X57.14251 Y0.17889
G01 X57.14134 Y2.25268
G01 X56.99102 Y2.55331
G01 X56.69041 Y2.70363
G01 X56.19349 Y2.70363
G01 X55.89288 Y2.55331
G01 X55.74256 Y2.25270
G01 X55.74256 Y0.19472
G01 X55.73669 Y0.15456
G01 X55.72765 Y0.12791
G01 X55.69636 Y0.08316
G01 X55.65160 Y0.05187
G01 X55.62496 Y0.04282
G01 X55.58483 Y0.03696
G01 X55.54467 Y0.04282
G01 X55.51802 Y0.05187
G01 X55.47327 Y0.08316
G01 X55.44198 Y0.12791
G01 X55.42912 Y0.17369
G01 X55.42707 Y2.25268
G01 X55.27675 Y2.55331
G01 X54.97614 Y2.70363
G01 X54.47922 Y2.70363
G01 X54.15443 Y2.54124
G01 X54.02826 Y2.41508
G01 X54.02710 Y0.17889
G01 X54.00949 Y0.12085
G01 X53.98044 Y0.08364
G01 X53.94353 Y0.05519
G01 X53.92760 Y0.04768
G01 X53.89154 Y0.03901
G01 X53.85646 Y0.03787
G01 X53.79509 Y0.05649
G01 X53.75275 Y0.09073
G01 X53.73230 Y0.11928
G01 X53.72583 Y0.13564
G01 X53.71277 Y0.19472
G04 P0 ( dwell for no time -- G64 should not smooth over this point )
G00 Z2.00000 ( retract )

G00 X58.47563 Y-0.74806 ( rapid move to begin. )
G01 F50.00000
( Mill infeed pass 1/1 )
G01 Z-0.10000
G04 P0 ( dwell for no time -- G64 should not smooth over this point )
G01 F100.00000
G01 X58.47563 Y-0.74806
G01 X58.47936 Y-0.79540
G01 X58.50136 Y-0.84541
G01 X58.53920 Y-0.88481
G01 X58.58159 Y-0.90627
G01 X58.62284 Y-0.91445
G01 X58.67024 Y-0.91072
G01 X58.72594 Y-0.88461
G01 X58.76369 Y-0.84516
G01 X62.19226 Y4.29765
G01 X62.21575 Y4.35455
G01 X62.21684 Y4.40916
G01 X62.20953 Y4.43631
G01 X62.19208 Y4.47294
G01 X62.15423 Y4.51234
G01 X62.12987 Y4.52636
G01 X62.09162 Y4.53992
G01 X62.03701 Y4.54101
G01 X61.97920 Y4.51998
G01 X61.95690 Y4.50284
G01 X61.92975 Y4.47269
G01 X58.50118 Y-0.67013
G01 X58.48380 Y-0.70681
G01 X58.47563 Y-0.74806
G04 P0 ( dwell for no time -- G64 should not smooth over this point )
G00 Z2.00000 ( retract )

G00 X62.47564 Y-1.14836 ( rapid move to begin. )
G01 F50.00000
( Mill infeed pass 1/1 )
G01 Z-0.10000
G04 P0 ( dwell for no time -- G64 should not smooth over this point )
G01 F100.00000
G01 X62.47564 Y-1.14836
G01 X62.47770 Y-1.10782
G01 X62.49754 Y-1.05694
G01 X62.52845 Y-1.02083
G01 X62.56340 Y-0.99748
G01 X62.60137 Y-0.98392
G01 X62.62213 Y-0.98181
G01 X62.78540 Y-0.98097
G01 X63.08626 Y-0.83048
G01 X63.23658 Y-0.52992
G01 X63.23658 Y2.86139
G01 X63.24122 Y2.89265
G01 X63.25611 Y2.93680
G01 X63.29035 Y2.97914
G01 X63.32530 Y3.00248
G01 X63.36355 Y3.01610
G01 X63.42510 Y3.01610
G01 X63.48197 Y2.99253
G01 X63.52347 Y2.95191
G01 X63.53901 Y2.92044
G01 X63.55207 Y2.86136
G01 X63.55022 Y-0.59124
G01 X63.54036 Y-0.62250
G01 X63.34521 Y-1.01813
G01 X63.31516 Y-1.05849
G01 X63.28128 Y-1.08504
G01 X62.88631 Y-1.28260
G01 X62.83881 Y-1.29398
G01 X62.62337 Y-1.29537
G01 X62.58827 Y-1.28974
G01 X62.54628 Y-1.26898
G01 X62.51377 Y-1.24231
G01 X62.48136 Y-1.18298
G01 X62.47564 Y-1.14836
G04 P0 ( dwell for no time -- G64 should not smooth over this point )
G00 Z2.00000 ( retract )

G00 X65.26637 Y0.80335 ( rapid move to begin. )
G01 F50.00000
( Mill infeed pass 1/1 )
G01 Z-0.10000
G04 P0 ( dwell for no time -- G64 should not smooth over this point )
G01 F100.00000
G01 X65.26637 Y0.80335
G01 X65.41668 Y0.50277
G01 X65.71729 Y0.35245
G01 X66.59519 Y0.35245
G01 X66.85564 Y0.48268
G01 X66.85564 Y1.65499
G01 X66.68770 Y1.57241
G01 X66.65653 Y1.56261
G01 X65.71732 Y1.56078
G01 X65.41668 Y1.41044
G01 X65.26637 Y1.10983
G01 X65.26637 Y0.80335
G04 P0 ( dwell for no time -- G64 should not smooth over this point )
G00 Z2.00000 ( retract )

G00 X64.95087 Y1.14643 ( rapid move to begin. )
G01 F50.00000
( Mill infeed pass 1/1 )
G01 Z-0.10000
G04 P0 ( dwell for no time -- G64 should not smooth over this point )
G01 F100.00000
G01 X64.95087 Y1.14643
G01 X64.95324 Y0.75027
G01 X64.95842 Y0.71793
G01 X65.16218 Y0.30775
G01 X65.18872 Y0.27389
G01 X65.22855 Y0.24409
G01 X65.60950 Y0.05362
G01 X65.66761 Y0.03767
G01 X66.65653 Y0.03881
G01 X66.68770 Y0.04862
G01 X66.86690 Y0.13675
G01 X66.90185 Y0.08316
G01 X66.93438 Y0.05893
G01 X66.95963 Y0.04648
G01 X66.99237 Y0.03901
G01 X67.03441 Y0.03901
G01 X67.07048 Y0.04768
G01 X67.10088 Y0.06523
G01 X67.13479 Y0.09456
G01 X67.15237 Y0.12085
G01 X67.16649 Y0.16342
G01 X67.17114 Y0.19472
G01 X67.17043 Y2.30238
G01 X67.15442 Y2.36060
G01 X66.95978 Y2.74846
G01 X66.94360 Y2.77218
G01 X66.89347 Y2.81201
G01 X66.51249 Y3.00248
G01 X66.46669 Y3.01625
G01 X66.44185 Y3.01912
G01 X65.65582 Y3.01724
G01 X65.62446 Y3.00731
G01 X65.22055 Y2.80693
G01 X65.19702 Y2.79110
G01 X65.16205 Y2.74902
G01 X65.14308 Y2.69413
G01 X65.14328 Y2.65902
G01 X65.15374 Y2.61003
G01 X65.17615 Y2.57444
G01 X65.21206 Y2.53954
G01 X65.25044 Y2.52240
G01 X65.29619 Y2.51346
G01 X65.33111 Y2.51709
G01 X65.36964 Y2.52981
G01 X65.71729 Y2.70363
G01 X66.40469 Y2.70363
G01 X66.70533 Y2.55331
G01 X66.85564 Y2.25268
G01 X66.85564 Y2.00647
G01 X66.59517 Y1.87622
G01 X65.67228 Y1.87566
G01 X65.62468 Y1.86454
G01 X65.22905 Y1.66939
G01 X65.18770 Y1.63972
G01 X65.16764 Y1.61214
G01 X64.96782 Y1.21818
G01 X64.95374 Y1.17183
G01 X64.95087 Y1.14643
G04 P0 ( dwell for no time -- G64 should not smooth over this point )
G00 Z2.00000 ( retract )

G00 X63.04633 Y4.00545 ( rapid move to begin. )
G01 F50.00000
( Mill infeed pass 1/1 )
G01 Z-0.10000
G04 P0 ( dwell for no time -- G64 should not smooth over this point )
G01 F100.00000
G01 X63.04633 Y4.00545
G01 X63.05446 Y4.05323
G01 X63.06088 Y4.07088
G01 X63.08024 Y4.10139
G01 X63.28278 Y4.30624
G01 X63.31532 Y4.33047
G01 X63.34399 Y4.34403
G01 X63.40246 Y4.35196
G01 X63.45596 Y4.33989
G01 X63.48954 Y4.31965
G01 X63.69637 Y4.11577
G01 X63.71839 Y4.08716
G01 X63.73241 Y4.05925
G01 X63.74234 Y4.00299
G01 X63.73421 Y3.95519
G01 X63.72779 Y3.93756
G01 X63.70843 Y3.90705
G01 X63.50587 Y3.70220
G01 X63.45469 Y3.66799
G01 X63.39431 Y3.65600
G01 X63.33396 Y3.66801
G01 X63.29911 Y3.68879
G01 X63.09230 Y3.89268
G01 X63.07026 Y3.92128
G01 X63.05626 Y3.94919
G01 X63.04633 Y4.00545
G04 P0 ( dwell for no time -- G64 should not smooth over this point )
G00 Z2.00000 ( retract )

G00 X68.76039 Y0.19472 ( rapid move to begin. )
G01 F50.00000
( Mill infeed pass 1/1 )
G01 Z-0.10000
G04 P0 ( dwell for no time -- G64 should not smooth over this point )
G01 F100.00000
G01 X68.76039 Y0.19472
G01 X68.76039 Y2.86139
G01 X68.76626 Y2.90152
G01 X68.77530 Y2.92816
G01 X68.80659 Y2.97292
G01 X68.83913 Y2.99715
G01 X68.87111 Y3.01165
G01 X68.91734 Y3.01765
G01 X68.94891 Y3.01610
G01 X68.97868 Y3.00543
G01 X69.02186 Y2.98003
G01 X69.04853 Y2.94752
G01 X69.06918 Y2.90581
G01 X69.07347 Y2.88879
G01 X69.07527 Y2.66819
G01 X69.21424 Y2.80340
G01 X69.63992 Y3.01353
G01 X69.67220 Y3.01854
G01 X70.06085 Y3.01912
G01 X70.10116 Y3.01325
G01 X70.13402 Y3.00088
G01 X70.18360 Y2.96019
G01 X70.20212 Y2.93040
G01 X70.21497 Y2.89560
G01 X70.21728 Y2.86057
G01 X70.21129 Y2.81435
G01 X70.19679 Y2.78237
G01 X70.17255 Y2.74983
G01 X70.12780 Y2.71854
G01 X70.08203 Y2.70568
G01 X69.71731 Y2.70363
G01 X69.39252 Y2.54124
G01 X69.23827 Y2.38699
G01 X69.07588 Y2.06220
G01 X69.07383 Y0.17369
G01 X69.06097 Y0.12791
G01 X69.02968 Y0.08316
G01 X68.98493 Y0.05187
G01 X68.95828 Y0.04282
G01 X68.91815 Y0.03696
G01 X68.87799 Y0.04282
G01 X68.85135 Y0.05187
G01 X68.80659 Y0.08316
G01 X68.77530 Y0.12791
G01 X68.76626 Y0.15456
G01 X68.76039 Y0.19472
G04 P0 ( dwell for no time -- G64 should not smooth over this point )
G00 Z2.00000 ( retract )

G00 X70.47565 Y-1.14836 ( rapid move to begin. )
G01 F50.00000
( Mill infeed pass 1/1 )
G01 Z-0.10000
G04 P0 ( dwell for no time -- G64 should not smooth over this point )
G01 F100.00000
G01 X70.47565 Y-1.14836
G01 X70.47771 Y-1.10782
G01 X70.49755 Y-1.05694
G01 X70.52846 Y-1.02083
G01 X70.56341 Y-0.99748
G01 X70.60138 Y-0.98392
G01 X70.62213 Y-0.98181
G01 X70.78541 Y-0.98097
G01 X71.08627 Y-0.83048
G01 X71.23659 Y-0.52992
G01 X71.23659 Y2.86139
G01 X71.24123 Y2.89265
G01 X71.25612 Y2.93680
G01 X71.29036 Y2.97914
G01 X71.32531 Y3.00248
G01 X71.36356 Y3.01610
G01 X71.42510 Y3.01610
G01 X71.48198 Y2.99253
G01 X71.52348 Y2.95191
G01 X71.53902 Y2.92044
G01 X71.55208 Y2.86136
G01 X71.55023 Y-0.59124
G01 X71.54037 Y-0.62250
G01 X71.34522 Y-1.01813
G01 X71.31517 Y-1.05849
G01 X71.28129 Y-1.08504
G01 X70.88632 Y-1.28260
G01 X70.83882 Y-1.29398
G01 X70.62338 Y-1.29537
G01 X70.58828 Y-1.28974
G01 X70.54629 Y-1.26898
G01 X70.51378 Y-1.24231
G01 X70.48137 Y-1.18298
G01 X70.47565 Y-1.14836
G04 P0 ( dwell for no time -- G64 should not smooth over this point )
G00 Z2.00000 ( retract )

G00 X73.14136 Y0.76614 ( rapid move to begin. )
G01 F50.00000
( Mill infeed pass 1/1 )
G01 Z-0.10000
G04 P0 ( dwell for no time -- G64 should not smooth over this point )
G01 F100.00000
G01 X73.14136 Y0.76614
G01 X73.14136 Y2.86139
G01 X73.15441 Y2.92044
G01 X73.16089 Y2.93680
G01 X73.18134 Y2.96535
G01 X73.21146 Y2.99253
G01 X73.26488 Y3.01534
G01 X73.29990 Y3.01765
G01 X73.34951 Y3.01069
G01 X73.38659 Y2.99085
G01 X73.42050 Y2.96151
G01 X73.43808 Y2.93522
G01 X73.45568 Y2.87718
G01 X73.45685 Y0.80335
G01 X73.60717 Y0.50277
G01 X73.90778 Y0.35245
G01 X74.40470 Y0.35245
G01 X74.72947 Y0.51483
G01 X74.85563 Y0.64099
G01 X74.85680 Y2.87718
G01 X74.86868 Y2.92044
G01 X74.88222 Y2.94902
G01 X74.92589 Y2.99085
G01 X74.95629 Y3.00840
G01 X75.01339 Y3.01912
G01 X75.05352 Y3.01325
G01 X75.08639 Y3.00088
G01 X75.12329 Y2.97243
G01 X75.15235 Y2.93522
G01 X75.16647 Y2.89265
G01 X75.17112 Y2.86139
G01 X75.17112 Y0.19472
G01 X75.15807 Y0.13564
G01 X75.15159 Y0.11928
G01 X75.13114 Y0.09073
G01 X75.10102 Y0.06355
G01 X75.04415 Y0.03998
G01 X74.98260 Y0.03998
G01 X74.94435 Y0.05359
G01 X74.90940 Y0.07694
G01 X74.87849 Y0.11306
G01 X74.85870 Y0.16373
G01 X74.85644 Y0.22558
G01 X74.51250 Y0.05362
G01 X74.46670 Y0.03983
G01 X74.44184 Y0.03696
G01 X73.86272 Y0.03754
G01 X73.83038 Y0.04254
G01 X73.41954 Y0.24381
G01 X73.36889 Y0.28390
G01 X73.35271 Y0.30762
G01 X73.15807 Y0.69543
G01 X73.14423 Y0.74138
G01 X73.14136 Y0.76614
G04 P0 ( dwell for no time -- G64 should not smooth over this point )
G00 Z2.00000 ( retract )

G00 X71.04672 Y3.99047 ( rapid move to begin. )
G01 F50.00000
( Mill infeed pass 1/1 )
G01 Z-0.10000
G04 P0 ( dwell for no time -- G64 should not smooth over this point )
G01 F100.00000
G01 X71.04672 Y3.99047
G01 X71.04822 Y4.02656
G01 X71.05543 Y4.05694
G01 X71.07519 Y4.09346
G01 X71.09231 Y4.11577
G01 X71.29912 Y4.31965
G01 X71.34057 Y4.34292
G01 X71.39435 Y4.35244
G01 X71.43448 Y4.34657
G01 X71.46112 Y4.33753
G01 X71.50588 Y4.30624
G01 X71.70842 Y4.10139
G01 X71.72777 Y4.07088
G01 X71.74194 Y4.01798
G01 X71.74045 Y3.98188
G01 X71.73323 Y3.95150
G01 X71.71347 Y3.91498
G01 X71.69610 Y3.89242
G01 X71.48182 Y3.68247
G01 X71.44532 Y3.66517
G01 X71.40410 Y3.65696
G01 X71.34995 Y3.66268
G01 X71.30819 Y3.68336
G01 X71.28279 Y3.70220
G01 X71.08025 Y3.90705
G01 X71.06089 Y3.93756
G01 X71.04672 Y3.99047
G04 P0 ( dwell for no time -- G64 should not smooth over this point )
G00 Z2.00000 ( retract )

G00 X76.76040 Y0.19472 ( rapid move to begin. )
G01 F50.00000
( Mill infeed pass 1/1 )
G01 Z-0.10000
G04 P0 ( dwell for no time -- G64 should not smooth over this point )
G01 F100.00000
G01 X76.76040 Y0.19472
G01 X76.76040 Y4.19471
G01 X76.76505 Y4.22598
G01 X76.77993 Y4.27012
G01 X76.81417 Y4.31246
G01 X76.83050 Y4.32585
G01 X76.86716 Y4.34327
G01 X76.88737 Y4.34942
G01 X76.92791 Y4.35148
G01 X76.94892 Y4.34942
G01 X76.98717 Y4.33581
G01 X77.00579 Y4.32585
G01 X77.03591 Y4.29867
G01 X77.05636 Y4.27012
G01 X77.06284 Y4.25376
G01 X77.07589 Y4.19468
G01 X77.07589 Y1.71839
G01 X78.34673 Y2.98633
G01 X78.37833 Y3.00571
G01 X78.41224 Y3.01480
G01 X78.45699 Y3.01803
G01 X78.48801 Y3.01186
G01 X78.52809 Y2.99176
G01 X78.55349 Y2.97292
G01 X78.57233 Y2.94752
G01 X78.59410 Y2.90241
G01 X78.59822 Y2.86057
G01 X78.59222 Y2.81435
G01 X78.57772 Y2.78237
G01 X78.55349 Y2.74983
G01 X77.50739 Y1.70370
G01 X78.56814 Y0.28936
G01 X78.59278 Y0.24061
G01 X78.59888 Y0.17940
G01 X78.58661 Y0.13348
G01 X78.56520 Y0.09731
G01 X78.53081 Y0.06447
G01 X78.48110 Y0.04188
G01 X78.44074 Y0.03762
G01 X78.39911 Y0.04356
G01 X78.35562 Y0.06276
G01 X78.33002 Y0.08448
G01 X77.28204 Y1.47833
G01 X77.07589 Y1.27221
G01 X77.07589 Y0.19472
G01 X77.07125 Y0.16342
G01 X77.05636 Y0.11928
G01 X77.02212 Y0.07694
G01 X77.00579 Y0.06355
G01 X76.96914 Y0.04613
G01 X76.93495 Y0.03815
G01 X76.87112 Y0.04442
G01 X76.82294 Y0.06975
G01 X76.79319 Y0.09949
G01 X76.76993 Y0.14094
G01 X76.76040 Y0.19472
G04 P0 ( dwell for no time -- G64 should not smooth over this point )
G00 Z2.00000 ( retract )

G00 X79.42801 Y-0.74806 ( rapid move to begin. )
G01 F50.00000
( Mill infeed pass 1/1 )
G01 Z-0.10000
G04 P0 ( dwell for no time -- G64 should not smooth over this point )
G01 F100.00000
G01 X79.42801 Y-0.74806
G01 X79.43174 Y-0.79540
G01 X79.45374 Y-0.84541
G01 X79.49159 Y-0.88481
G01 X79.53398 Y-0.90627
G01 X79.57523 Y-0.91445
G01 X79.62262 Y-0.91072
G01 X79.67833 Y-0.88461
G01 X79.71607 Y-0.84516
G01 X83.14464 Y4.29765
G01 X83.16813 Y4.35455
G01 X83.16923 Y4.40916
G01 X83.16191 Y4.43631
G01 X83.14446 Y4.47294
G01 X83.10662 Y4.51234
G01 X83.08226 Y4.52636
G01 X83.04400 Y4.53992
G01 X82.98939 Y4.54101
G01 X82.93158 Y4.51998
G01 X82.90928 Y4.50284
G01 X82.88213 Y4.47269
G01 X79.45356 Y-0.67013
G01 X79.43619 Y-0.70681
G01 X79.42801 Y-0.74806
G04 P0 ( dwell for no time -- G64 should not smooth over this point )
G00 Z2.00000 ( retract )

G00 X83.42803 Y-1.14836 ( rapid move to begin. )
G01 F50.00000
( Mill infeed pass 1/1 )
G01 Z-0.10000
G04 P0 ( dwell for no time -- G64 should not smooth over this point )
G01 F100.00000
G01 X83.42803 Y-1.14836
G01 X83.43008 Y-1.10782
G01 X83.44992 Y-1.05694
G01 X83.48083 Y-1.02083
G01 X83.51578 Y-0.99748
G01 X83.55376 Y-0.98392
G01 X83.57451 Y-0.98181
G01 X83.73778 Y-0.98097
G01 X84.03864 Y-0.83048
G01 X84.18896 Y-0.52992
G01 X84.18896 Y2.86139
G01 X84.19361 Y2.89265
G01 X84.20849 Y2.93680
G01 X84.24273 Y2.97914
G01 X84.27768 Y3.00248
G01 X84.31593 Y3.01610
G01 X84.37748 Y3.01610
G01 X84.43435 Y2.99253
G01 X84.47585 Y2.95191
G01 X84.49140 Y2.92044
G01 X84.50445 Y2.86136
G01 X84.50260 Y-0.59124
G01 X84.49274 Y-0.62250
G01 X84.29760 Y-1.01813
G01 X84.26755 Y-1.05849
G01 X84.23366 Y-1.08504
G01 X83.83869 Y-1.28260
G01 X83.79120 Y-1.29398
G01 X83.57575 Y-1.29537
G01 X83.54065 Y-1.28974
G01 X83.49866 Y-1.26898
G01 X83.46615 Y-1.24231
G01 X83.43374 Y-1.18298
G01 X83.42803 Y-1.14836
G04 P0 ( dwell for no time -- G64 should not smooth over this point )
G00 Z2.00000 ( retract )

G00 X86.09373 Y0.19472 ( rapid move to begin. )
G01 F50.00000
( Mill infeed pass 1/1 )
G01 Z-0.10000
G04 P0 ( dwell for no time -- G64 should not smooth over this point )
G01 F100.00000
G01 X86.09373 Y0.19472
G01 X86.09373 Y2.86139
G01 X86.09960 Y2.90152
G01 X86.10864 Y2.92816
G01 X86.13993 Y2.97292
G01 X86.17247 Y2.99715
G01 X86.20445 Y3.01165
G01 X86.25068 Y3.01765
G01 X86.28225 Y3.01610
G01 X86.31202 Y3.00543
G01 X86.35520 Y2.98003
G01 X86.38187 Y2.94752
G01 X86.40252 Y2.90581
G01 X86.40681 Y2.88879
G01 X86.40862 Y2.66819
G01 X86.54758 Y2.80340
G01 X86.97321 Y3.01353
G01 X87.00552 Y3.01854
G01 X87.39416 Y3.01912
G01 X87.43447 Y3.01325
G01 X87.46734 Y3.00088
G01 X87.51692 Y2.96019
G01 X87.53544 Y2.93040
G01 X87.54829 Y2.89560
G01 X87.55060 Y2.86057
G01 X87.54461 Y2.81435
G01 X87.53010 Y2.78237
G01 X87.50587 Y2.74983
G01 X87.46112 Y2.71854
G01 X87.41534 Y2.70568
G01 X87.05063 Y2.70363
G01 X86.72586 Y2.54124
G01 X86.57161 Y2.38699
G01 X86.40923 Y2.06223
G01 X86.40717 Y0.17369
G01 X86.39432 Y0.12791
G01 X86.36302 Y0.08316
G01 X86.31827 Y0.05187
G01 X86.29162 Y0.04282
G01 X86.25149 Y0.03696
G01 X86.21133 Y0.04282
G01 X86.18469 Y0.05187
G01 X86.13993 Y0.08316
G01 X86.10864 Y0.12791
G01 X86.09960 Y0.15456
G01 X86.09373 Y0.19472
G04 P0 ( dwell for no time -- G64 should not smooth over this point )
G00 Z2.00000 ( retract )

G00 X88.56993 Y0.19472 ( rapid move to begin. )
G01 F50.00000
( Mill infeed pass 1/1 )
G01 Z-0.10000
G04 P0 ( dwell for no time -- G64 should not smooth over this point )
G01 F100.00000
G01 X88.56993 Y0.19472
G01 X88.56993 Y2.86139
G01 X88.57579 Y2.90152
G01 X88.58484 Y2.92816
G01 X88.61613 Y2.97292
G01 X88.64867 Y2.99715
G01 X88.68065 Y3.01165
G01 X88.72687 Y3.01765
G01 X88.75845 Y3.01610
G01 X88.78821 Y3.00543
G01 X88.83139 Y2.98003
G01 X88.85806 Y2.94752
G01 X88.87871 Y2.90581
G01 X88.88301 Y2.88879
G01 X88.88481 Y2.66819
G01 X89.02377 Y2.80340
G01 X89.44940 Y3.01353
G01 X89.48171 Y3.01854
G01 X89.87036 Y3.01912
G01 X89.91067 Y3.01325
G01 X89.94353 Y3.00088
G01 X89.99311 Y2.96019
G01 X90.01163 Y2.93040
G01 X90.02448 Y2.89560
G01 X90.02679 Y2.86057
G01 X90.02080 Y2.81435
G01 X90.00630 Y2.78237
G01 X89.98207 Y2.74983
G01 X89.93731 Y2.71854
G01 X89.89154 Y2.70568
G01 X89.52682 Y2.70363
G01 X89.20206 Y2.54124
G01 X89.04780 Y2.38699
G01 X88.88542 Y2.06220
G01 X88.88336 Y0.17369
G01 X88.87051 Y0.12791
G01 X88.83922 Y0.08316
G01 X88.79446 Y0.05187
G01 X88.76782 Y0.04282
G01 X88.72769 Y0.03696
G01 X88.68753 Y0.04282
G01 X88.66088 Y0.05187
G01 X88.61613 Y0.08316
G01 X88.58484 Y0.12791
G01 X88.57579 Y0.15456
G01 X88.56993 Y0.19472
G04 P0 ( dwell for no time -- G64 should not smooth over this point )
G00 Z2.00000 ( retract )

G00 X83.99910 Y3.99047 ( rapid move to begin. )
G01 F50.00000
( Mill infeed pass 1/1 )
G01 Z-0.10000
G04 P0 ( dwell for no time -- G64 should not smooth over this point )
G01 F100.00000
G01 X83.99910 Y3.99047
G01 X84.00059 Y4.02656
G01 X84.00781 Y4.05694
G01 X84.02757 Y4.09346
G01 X84.04469 Y4.11577
G01 X84.25150 Y4.31965
G01 X84.29295 Y4.34292
G01 X84.34672 Y4.35244
G01 X84.38685 Y4.34657
G01 X84.41350 Y4.33753
G01 X84.45825 Y4.30624
G01 X84.66079 Y4.10139
G01 X84.68015 Y4.07088
G01 X84.69432 Y4.01798
G01 X84.69282 Y3.98188
G01 X84.68561 Y3.95150
G01 X84.66585 Y3.91498
G01 X84.64847 Y3.89242
G01 X84.43704 Y3.68445
G01 X84.40577 Y3.66906
G01 X84.36077 Y3.65691
G01 X84.34319 Y3.65605
G01 X84.30656 Y3.66187
G01 X84.27992 Y3.67091
G01 X84.23516 Y3.70220
G01 X84.03262 Y3.90705
G01 X84.01327 Y3.93756
G01 X83.99910 Y3.99047

G04 P0 ( dwell for no time -- G64 should not smooth over this point )
G00 Z15.000000 ( retract )

M5 ( Spindle off. )
G04 P1.000000
M9 ( Coolant off. )
M2 ( Program end. )

