(Exported by FreeCAD)
(Post Processor: linuxcnc_post)
(Output Time:2026-04-22 10:10:10.123105)
(begin preamble)
G17 G54 G40 G49 G80 G90
G21
(begin operation: Fixture)
(machine units: mm/min)
G54 
(finish operation: Fixture)
(begin operation: TC: Endmill_6mm001)
(machine units: mm/min)
(TC: Endmill_6mm001) 
M5
M6 T2 
G43 H2 
(finish operation: TC: Endmill_6mm001)
(begin operation: keystone-vasen-1-profile)
(machine units: mm/min)
(keystone-vasen-1-profile) 
(Compensated Tool Path. Diameter: 6.0) 
G0 Z10.000 
G0 X35.000 Y54.750 
G0 Y54.750 
G0 Y54.750 Z3.000 
G1 X35.000 Y54.750 Z-5.000 F60.000 
G1 X35.000 Y38.000 Z-5.000 F120.000 
G1 X24.000 Y38.000 Z-5.000 F120.000 
G1 X24.000 Y54.750 Z-5.000 F120.000 
G1 X35.000 Y54.750 Z-5.000 F120.000 
G1 X35.000 Y54.750 Z-10.000 F60.000 
G1 X35.000 Y38.000 Z-10.000 F120.000 
G1 X24.000 Y38.000 Z-10.000 F120.000 
G1 X24.000 Y54.750 Z-10.000 F120.000 
G1 X35.000 Y54.750 Z-10.000 F120.000 
G1 X35.000 Y54.750 Z-15.000 F60.000 
G1 X35.000 Y38.000 Z-15.000 F120.000 
G1 X24.000 Y38.000 Z-15.000 F120.000 
G1 X24.000 Y54.750 Z-15.000 F120.000 
G1 X35.000 Y54.750 Z-15.000 F120.000 
G1 X35.000 Y54.750 Z-19.000 F60.000 
G1 X35.000 Y38.000 Z-19.000 F120.000 
G1 X24.000 Y38.000 Z-19.000 F120.000 
G1 X24.000 Y54.750 Z-19.000 F120.000 
G1 X35.000 Y54.750 Z-19.000 F120.000 
G0 Z10.000 
G0 Z10.000 
(finish operation: keystone-vasen-1-profile)
(begin operation: keystone-vasen-2-profile)
(machine units: mm/min)
(keystone-vasen-2-profile) 
(Compensated Tool Path. Diameter: 6.0) 
G0 Z10.000 
G0 X70.000 Y54.750 
G0 Y54.750 
G0 Y54.750 Z3.000 
G1 X70.000 Y54.750 Z-5.000 F60.000 
G1 X70.000 Y38.000 Z-5.000 F120.000 
G1 X59.000 Y38.000 Z-5.000 F120.000 
G1 X59.000 Y54.750 Z-5.000 F120.000 
G1 X70.000 Y54.750 Z-5.000 F120.000 
G1 X70.000 Y54.750 Z-10.000 F60.000 
G1 X70.000 Y38.000 Z-10.000 F120.000 
G1 X59.000 Y38.000 Z-10.000 F120.000 
G1 X59.000 Y54.750 Z-10.000 F120.000 
G1 X70.000 Y54.750 Z-10.000 F120.000 
G1 X70.000 Y54.750 Z-15.000 F60.000 
G1 X70.000 Y38.000 Z-15.000 F120.000 
G1 X59.000 Y38.000 Z-15.000 F120.000 
G1 X59.000 Y54.750 Z-15.000 F120.000 
G1 X70.000 Y54.750 Z-15.000 F120.000 
G1 X70.000 Y54.750 Z-19.000 F60.000 
G1 X70.000 Y38.000 Z-19.000 F120.000 
G1 X59.000 Y38.000 Z-19.000 F120.000 
G1 X59.000 Y54.750 Z-19.000 F120.000 
G1 X70.000 Y54.750 Z-19.000 F120.000 
G0 Z10.000 
G0 Z10.000 
(finish operation: keystone-vasen-2-profile)
(begin postamble)
M05
G17 G54 G90 G80 G40
M2
