(Exported by FreeCAD)
(Post Processor: linuxcnc_post)
(Output Time:2026-04-22 10:08:21.262080)
(begin preamble)
G17 G54 G40 G49 G80 G90
G21
(begin operation: Fixture)
(machine units: mm/min)
G54 
(finish operation: Fixture)
(begin operation: TC: Endmill_6mm001)
(machine units: mm/min)
(TC: Endmill_6mm001) 
M5
M6 T2 
G43 H2 
(finish operation: TC: Endmill_6mm001)
(begin operation: kytkimenreikä-Helix)
(machine units: mm/min)
(kytkimenreikä-Helix) 
(helix cut operation) 
G0 Z10.000 
G0 Z10.000 
G0 X91.000 Y46.375 Z10.000 
G0 X91.000 Y46.375 Z0.000 
G0 X94.000 Y46.375 
G1 Z0.000 F60.000 
G3 X88.000 Y46.375 Z-2.375 I-3.000 J0.000 F120.000 
G3 X94.000 Y46.375 Z-4.750 I3.000 J0.000 F120.000 
G3 X88.000 Y46.375 Z-7.125 I-3.000 J0.000 F120.000 
G3 X94.000 Y46.375 Z-9.500 I3.000 J0.000 F120.000 
G3 X88.000 Y46.375 Z-11.875 I-3.000 J0.000 F120.000 
G3 X94.000 Y46.375 Z-14.250 I3.000 J0.000 F120.000 
G3 X88.000 Y46.375 Z-16.625 I-3.000 J0.000 F120.000 
G3 X94.000 Y46.375 Z-19.000 I3.000 J0.000 F120.000 
G3 X88.000 Y46.375 Z-19.000 I-3.000 J0.000 F120.000 
G3 X94.000 Y46.375 Z-19.000 I3.000 J0.000 F120.000 
G0 X91.000 Y46.375 Z-19.000 
G0 Z0.000 
G0 X98.000 Y46.375 
G1 Z0.000 F60.000 
G3 X84.000 Y46.375 Z-2.375 I-7.000 J0.000 F120.000 
G3 X98.000 Y46.375 Z-4.750 I7.000 J0.000 F120.000 
G3 X84.000 Y46.375 Z-7.125 I-7.000 J0.000 F120.000 
G3 X98.000 Y46.375 Z-9.500 I7.000 J0.000 F120.000 
G3 X84.000 Y46.375 Z-11.875 I-7.000 J0.000 F120.000 
G3 X98.000 Y46.375 Z-14.250 I7.000 J0.000 F120.000 
G3 X84.000 Y46.375 Z-16.625 I-7.000 J0.000 F120.000 
G3 X98.000 Y46.375 Z-19.000 I7.000 J0.000 F120.000 
G3 X84.000 Y46.375 Z-19.000 I-7.000 J0.000 F120.000 
G3 X98.000 Y46.375 Z-19.000 I7.000 J0.000 F120.000 
G0 X91.000 Y46.375 Z-19.000 
G0 Z0.000 
G0 Z10.000 
(finish operation: kytkimenreikä-Helix)
(begin postamble)
M05
G17 G54 G90 G80 G40
M2
