(Exported by FreeCAD)
(Post Processor: linuxcnc_post)
(Output Time:2026-04-23 08:33:55.447234)
(begin preamble)
G17 G54 G40 G49 G80 G90
G21
(begin operation: Fixture)
(machine units: mm/min)
G54 
(finish operation: Fixture)
(begin operation: TC: Endmill_6mm)
(machine units: mm/min)
(TC: Endmill_6mm) 
M5
M6 T2 
G43 H2 
(finish operation: TC: Endmill_6mm)
(begin operation: etu-pls-upotus001)
(machine units: mm/min)
(etu-pls-upotus001) 
G0 Z10.000 
G0 X-26.951 Y36.203 
G0 Z3.000 
G1 X-26.951 Y36.203 Z-4.000 F60.000 
G1 X-36.103 Y27.051 Z-4.000 F240.000 
G2 X-26.951 Y36.203 Z-4.000 I10.040 J-0.888 F240.000 
G2 X-25.994 Y36.250 Z-4.000 I0.791 J-6.363 F240.000 
G1 X-19.267 Y36.250 Z-4.000 F240.000 
G1 X-36.150 Y19.367 Z-4.000 F240.000 
G1 X-36.150 Y11.731 Z-4.000 F240.000 
G1 X-11.631 Y36.250 Z-4.000 F240.000 
G1 X-3.994 Y36.250 Z-4.000 F240.000 
G1 X-36.150 Y4.094 Z-4.000 F240.000 
G1 X-36.150 Y-3.543 Z-4.000 F240.000 
G1 X3.643 Y36.250 Z-4.000 F240.000 
G1 X11.280 Y36.250 Z-4.000 F240.000 
G1 X-36.150 Y-11.180 Z-4.000 F240.000 
G1 X-36.150 Y-18.816 Z-4.000 F240.000 
G1 X18.916 Y36.250 Z-4.000 F240.000 
G1 X26.194 Y36.250 Z-4.000 F240.000 
G1 X26.540 Y36.237 Z-4.000 F240.000 
G1 X-36.137 Y-26.440 Z-4.000 F240.000 
G3 X-34.183 Y-32.123 Z-4.000 I9.945 J0.242 F240.000 
G1 X32.223 Y34.283 Z-4.000 F240.000 
G2 X35.579 Y30.002 Z-4.000 I-5.843 J-8.036 F240.000 
G1 X-29.902 Y-35.479 Z-4.000 F240.000 
G3 X-26.805 Y-36.220 Z-4.000 I3.789 J8.997 F240.000 
G3 X-23.037 Y-36.250 Z-4.000 I2.289 J50.335 F240.000 
G1 X36.350 Y23.137 Z-4.000 F240.000 
G1 X36.350 Y15.500 Z-4.000 F240.000 
G1 X-15.400 Y-36.250 Z-4.000 F240.000 
G1 X-7.763 Y-36.250 Z-4.000 F240.000 
G1 X36.350 Y7.863 Z-4.000 F240.000 
G1 X36.350 Y0.226 Z-4.000 F240.000 
G1 X-0.126 Y-36.250 Z-4.000 F240.000 
G1 X7.510 Y-36.250 Z-4.000 F240.000 
G1 X36.350 Y-7.410 Z-4.000 F240.000 
G1 X36.350 Y-15.047 Z-4.000 F240.000 
G1 X15.147 Y-36.250 Z-4.000 F240.000 
G1 X22.784 Y-36.250 Z-4.000 F240.000 
G1 X36.350 Y-22.684 Z-4.000 F240.000 
G1 X36.350 Y-26.094 Z-4.000 F240.000 
G2 X33.118 Y-33.552 Z-4.000 I-10.112 J-0.048 F240.000 
G1 X33.118 Y-33.552 Z-5.000 F60.000 
G3 X36.350 Y-26.094 Z-5.000 I-6.881 J7.411 F240.000 
G1 X36.350 Y-22.684 Z-5.000 F240.000 
G1 X22.784 Y-36.250 Z-5.000 F240.000 
G1 X15.147 Y-36.250 Z-5.000 F240.000 
G1 X36.350 Y-15.047 Z-5.000 F240.000 
G1 X36.350 Y-7.410 Z-5.000 F240.000 
G1 X7.510 Y-36.250 Z-5.000 F240.000 
G1 X-0.126 Y-36.250 Z-5.000 F240.000 
G1 X36.350 Y0.226 Z-5.000 F240.000 
G1 X36.350 Y7.863 Z-5.000 F240.000 
G1 X-7.763 Y-36.250 Z-5.000 F240.000 
G1 X-15.400 Y-36.250 Z-5.000 F240.000 
G1 X36.350 Y15.500 Z-5.000 F240.000 
G1 X36.350 Y23.137 Z-5.000 F240.000 
G1 X-23.037 Y-36.250 Z-5.000 F240.000 
G2 X-26.805 Y-36.220 Z-5.000 I-1.479 J50.365 F240.000 
G2 X-29.902 Y-35.479 Z-5.000 I0.692 J9.738 F240.000 
G1 X35.579 Y30.002 Z-5.000 F240.000 
G3 X32.223 Y34.283 Z-5.000 I-9.199 J-3.755 F240.000 
G1 X-34.183 Y-32.123 Z-5.000 F240.000 
G2 X-36.137 Y-26.440 Z-5.000 I7.991 J5.925 F240.000 
G1 X26.540 Y36.237 Z-5.000 F240.000 
G1 X26.194 Y36.250 Z-5.000 F240.000 
G1 X18.916 Y36.250 Z-5.000 F240.000 
G1 X-36.150 Y-18.816 Z-5.000 F240.000 
G1 X-36.150 Y-11.180 Z-5.000 F240.000 
G1 X11.280 Y36.250 Z-5.000 F240.000 
G1 X3.643 Y36.250 Z-5.000 F240.000 
G1 X-36.150 Y-3.543 Z-5.000 F240.000 
G1 X-36.150 Y4.094 Z-5.000 F240.000 
G1 X-3.994 Y36.250 Z-5.000 F240.000 
G1 X-11.631 Y36.250 Z-5.000 F240.000 
G1 X-36.150 Y11.731 Z-5.000 F240.000 
G1 X-36.150 Y19.367 Z-5.000 F240.000 
G1 X-19.267 Y36.250 Z-5.000 F240.000 
G1 X-25.994 Y36.250 Z-5.000 F240.000 
G3 X-26.951 Y36.203 Z-5.000 I-0.166 J-6.409 F240.000 
G3 X-36.103 Y27.051 Z-5.000 I0.888 J-10.040 F240.000 
G1 X-26.951 Y36.203 Z-5.000 F240.000 
G0 Z10.000 
G0 Z10.000 
(finish operation: etu-pls-upotus001)
(begin postamble)
M05
G17 G54 G90 G80 G40
M2
