(Exported by FreeCAD)
(Post Processor: linuxcnc_post)
(Output Time:2026-04-19 10:17:44.787933)
(begin preamble)
G17 G54 G40 G49 G80 G90
G21
(begin operation: Fixture)
(machine units: mm/min)
G54 
(finish operation: Fixture)
(begin operation: TC: Endmill_6mm)
(machine units: mm/min)
(TC: Endmill_6mm) 
M5
M6 T2 
G43 H2 
(finish operation: TC: Endmill_6mm)
(begin operation: etu-kytkin)
(machine units: mm/min)
(etu-kytkin) 
G0 Z30.000 
G0 
G0 X-66.785 Y0.951 
G0 X-66.785 Y0.951 Z3.000 
G1 X-66.785 Y0.951 Z-3.000 F60.000 
G3 X-67.451 Y-0.285 Z-3.000 I0.285 J-0.951 F120.000 
G3 X-66.215 Y-0.951 Z-3.000 I0.951 J0.285 F120.000 
G3 X-65.549 Y0.285 Z-3.000 I-0.285 J0.951 F120.000 
G3 X-66.785 Y0.951 Z-3.000 I-0.951 J-0.285 F120.000 
G0 Z30.000 
G0 X-67.216 Y2.390 Z30.000 
G0 X-67.216 Y2.390 Z3.000 
G1 X-67.216 Y2.390 Z-3.000 F60.000 
G3 X-68.890 Y-0.716 Z-3.000 I0.716 J-2.390 F120.000 
G3 X-65.784 Y-2.390 Z-3.000 I2.390 J0.716 F120.000 
G3 X-64.110 Y0.716 Z-3.000 I-0.716 J2.390 F120.000 
G3 X-67.216 Y2.390 Z-3.000 I-2.390 J-0.716 F120.000 
G0 Z30.000 
G0 X-66.785 Y0.951 Z30.000 
G0 X-66.785 Y0.951 Z3.000 
G1 X-66.785 Y0.951 Z-6.000 F60.000 
G3 X-67.451 Y-0.285 Z-6.000 I0.285 J-0.951 F120.000 
G3 X-66.215 Y-0.951 Z-6.000 I0.951 J0.285 F120.000 
G3 X-65.549 Y0.285 Z-6.000 I-0.285 J0.951 F120.000 
G3 X-66.785 Y0.951 Z-6.000 I-0.951 J-0.285 F120.000 
G0 Z30.000 
G0 X-67.216 Y2.390 Z30.000 
G0 X-67.216 Y2.390 Z3.000 
G1 X-67.216 Y2.390 Z-6.000 F60.000 
G3 X-68.890 Y-0.716 Z-6.000 I0.716 J-2.390 F120.000 
G3 X-65.784 Y-2.390 Z-6.000 I2.390 J0.716 F120.000 
G3 X-64.110 Y0.716 Z-6.000 I-0.716 J2.390 F120.000 
G3 X-67.216 Y2.390 Z-6.000 I-2.390 J-0.716 F120.000 
G0 Z30.000 
G0 X-66.785 Y0.951 Z30.000 
G0 X-66.785 Y0.951 Z3.000 
G1 X-66.785 Y0.951 Z-9.000 F60.000 
G3 X-67.451 Y-0.285 Z-9.000 I0.285 J-0.951 F120.000 
G3 X-66.215 Y-0.951 Z-9.000 I0.951 J0.285 F120.000 
G3 X-65.549 Y0.285 Z-9.000 I-0.285 J0.951 F120.000 
G3 X-66.785 Y0.951 Z-9.000 I-0.951 J-0.285 F120.000 
G0 Z30.000 
G0 X-67.216 Y2.390 Z30.000 
G0 X-67.216 Y2.390 Z3.000 
G1 X-67.216 Y2.390 Z-9.000 F60.000 
G3 X-68.890 Y-0.716 Z-9.000 I0.716 J-2.390 F120.000 
G3 X-65.784 Y-2.390 Z-9.000 I2.390 J0.716 F120.000 
G3 X-64.110 Y0.716 Z-9.000 I-0.716 J2.390 F120.000 
G3 X-67.216 Y2.390 Z-9.000 I-2.390 J-0.716 F120.000 
G0 Z30.000 
G0 X-66.785 Y0.951 Z30.000 
G0 X-66.785 Y0.951 Z3.000 
G1 X-66.785 Y0.951 Z-12.000 F60.000 
G3 X-67.451 Y-0.285 Z-12.000 I0.285 J-0.951 F120.000 
G3 X-66.215 Y-0.951 Z-12.000 I0.951 J0.285 F120.000 
G3 X-65.549 Y0.285 Z-12.000 I-0.285 J0.951 F120.000 
G3 X-66.785 Y0.951 Z-12.000 I-0.951 J-0.285 F120.000 
G0 Z30.000 
G0 X-67.216 Y2.390 Z30.000 
G0 X-67.216 Y2.390 Z3.000 
G1 X-67.216 Y2.390 Z-12.000 F60.000 
G3 X-68.890 Y-0.716 Z-12.000 I0.716 J-2.390 F120.000 
G3 X-65.784 Y-2.390 Z-12.000 I2.390 J0.716 F120.000 
G3 X-64.110 Y0.716 Z-12.000 I-0.716 J2.390 F120.000 
G3 X-67.216 Y2.390 Z-12.000 I-2.390 J-0.716 F120.000 
G0 Z30.000 
G0 X-66.785 Y0.951 Z30.000 
G0 X-66.785 Y0.951 Z3.000 
G1 X-66.785 Y0.951 Z-15.000 F60.000 
G3 X-67.451 Y-0.285 Z-15.000 I0.285 J-0.951 F120.000 
G3 X-66.215 Y-0.951 Z-15.000 I0.951 J0.285 F120.000 
G3 X-65.549 Y0.285 Z-15.000 I-0.285 J0.951 F120.000 
G3 X-66.785 Y0.951 Z-15.000 I-0.951 J-0.285 F120.000 
G0 Z30.000 
G0 X-67.216 Y2.390 Z30.000 
G0 X-67.216 Y2.390 Z3.000 
G1 X-67.216 Y2.390 Z-15.000 F60.000 
G3 X-68.890 Y-0.716 Z-15.000 I0.716 J-2.390 F120.000 
G3 X-65.784 Y-2.390 Z-15.000 I2.390 J0.716 F120.000 
G3 X-64.110 Y0.716 Z-15.000 I-0.716 J2.390 F120.000 
G3 X-67.216 Y2.390 Z-15.000 I-2.390 J-0.716 F120.000 
G0 Z30.000 
G0 X-66.785 Y0.951 Z30.000 
G0 X-66.785 Y0.951 Z3.000 
G1 X-66.785 Y0.951 Z-18.000 F60.000 
G3 X-67.451 Y-0.285 Z-18.000 I0.285 J-0.951 F120.000 
G3 X-66.215 Y-0.951 Z-18.000 I0.951 J0.285 F120.000 
G3 X-65.549 Y0.285 Z-18.000 I-0.285 J0.951 F120.000 
G3 X-66.785 Y0.951 Z-18.000 I-0.951 J-0.285 F120.000 
G0 Z30.000 
G0 X-67.216 Y2.390 Z30.000 
G0 X-67.216 Y2.390 Z3.000 
G1 X-67.216 Y2.390 Z-18.000 F60.000 
G3 X-68.890 Y-0.716 Z-18.000 I0.716 J-2.390 F120.000 
G3 X-65.784 Y-2.390 Z-18.000 I2.390 J0.716 F120.000 
G3 X-64.110 Y0.716 Z-18.000 I-0.716 J2.390 F120.000 
G3 X-67.216 Y2.390 Z-18.000 I-2.390 J-0.716 F120.000 
G0 Z30.000 
G0 X-66.785 Y0.951 Z30.000 
G0 X-66.785 Y0.951 Z3.000 
G1 X-66.785 Y0.951 Z-19.000 F60.000 
G3 X-67.451 Y-0.285 Z-19.000 I0.285 J-0.951 F120.000 
G3 X-66.215 Y-0.951 Z-19.000 I0.951 J0.285 F120.000 
G3 X-65.549 Y0.285 Z-19.000 I-0.285 J0.951 F120.000 
G3 X-66.785 Y0.951 Z-19.000 I-0.951 J-0.285 F120.000 
G0 Z30.000 
G0 X-67.216 Y2.390 Z30.000 
G0 X-67.216 Y2.390 Z3.000 
G1 X-67.216 Y2.390 Z-19.000 F60.000 
G3 X-68.890 Y-0.716 Z-19.000 I0.716 J-2.390 F120.000 
G3 X-65.784 Y-2.390 Z-19.000 I2.390 J0.716 F120.000 
G3 X-64.110 Y0.716 Z-19.000 I-0.716 J2.390 F120.000 
G3 X-67.216 Y2.390 Z-19.000 I-2.390 J-0.716 F120.000 
G0 Z30.000 
G0 Z30.000 
(finish operation: etu-kytkin)
(begin postamble)
M05
G17 G54 G90 G80 G40
M2
