(Exported by FreeCAD)
(Post Processor: linuxcnc_post)
(Output Time:2026-04-22 11:39:20.873907)
(begin preamble)
G17 G54 G40 G49 G80 G90
G21
(begin operation: Fixture)
(machine units: mm/min)
G54 
(finish operation: Fixture)
(begin operation: TC: Endmill_6mm)
(machine units: mm/min)
(TC: Endmill_6mm) 
M5
M6 T2 
G43 H2 
(finish operation: TC: Endmill_6mm)
(begin operation: etu-pls-läpi-profile)
(machine units: mm/min)
(etu-pls-läpi-profile) 
(Compensated Tool Path. Diameter: 6.0) 
G0 Z10.000 
G0 X23.788 Y23.688 
G0 Z3.000 
G1 X23.788 Y23.688 Z-5.000 F60.000 
G2 X3.191 Y-33.356 Z-5.000 I-23.688 J-23.688 F120.000 
G2 X-2.991 Y33.356 Z-5.000 I-3.091 J33.356 F120.000 
G2 X23.788 Y23.688 Z-5.000 I3.091 J-33.356 F120.000 
G1 X23.788 Y23.688 Z-10.000 F60.000 
G2 X3.191 Y-33.356 Z-10.000 I-23.688 J-23.688 F120.000 
G2 X-2.991 Y33.356 Z-10.000 I-3.091 J33.356 F120.000 
G2 X23.788 Y23.688 Z-10.000 I3.091 J-33.356 F120.000 
G1 X23.788 Y23.688 Z-15.000 F60.000 
G2 X3.191 Y-33.356 Z-15.000 I-23.688 J-23.688 F120.000 
G2 X-2.991 Y33.356 Z-15.000 I-3.091 J33.356 F120.000 
G2 X23.788 Y23.688 Z-15.000 I3.091 J-33.356 F120.000 
G1 X23.788 Y23.688 Z-18.000 F60.000 
G2 X3.191 Y-33.356 Z-18.000 I-23.688 J-23.688 F120.000 
G2 X-2.991 Y33.356 Z-18.000 I-3.091 J33.356 F120.000 
G2 X23.788 Y23.688 Z-18.000 I3.091 J-33.356 F120.000 
G0 Z10.000 
G0 Z10.000 
(finish operation: etu-pls-läpi-profile)
(begin postamble)
M05
G17 G54 G90 G80 G40
M2
