(Exported by FreeCAD)
(Post Processor: linuxcnc_post)
(Output Time:2026-04-19 10:05:22.572854)
(begin preamble)
G17 G54 G40 G49 G80 G90
G21
(begin operation: Fixture)
(machine units: mm/min)
G54 
(finish operation: Fixture)
(begin operation: TC: Endmill_6mm)
(machine units: mm/min)
(TC: Endmill_6mm) 
M5
M6 T2 
G43 H2 
(finish operation: TC: Endmill_6mm)
(begin operation: etu-pls-upotus)
(machine units: mm/min)
(etu-pls-upotus) 
G0 Z30.000 
G0 X19.573 Y34.361 
G0 Z3.000 
G1 X19.573 Y34.361 Z-3.000 F60.000 
G3 X15.778 Y36.250 Z-3.000 I-18.069 J-31.544 F120.000 
G1 X21.462 Y36.250 Z-3.000 F120.000 
G1 X19.573 Y34.361 Z-3.000 F120.000 
G2 X23.682 Y31.682 Z-3.000 I-18.248 J-32.487 F120.000 
G1 X28.075 Y36.075 Z-3.000 F120.000 
G2 X32.700 Y33.912 Z-3.000 I-1.743 J-9.756 F120.000 
G1 X27.360 Y28.572 Z-3.000 F120.000 
G2 X30.632 Y25.055 Z-3.000 I-24.868 J-26.413 F120.000 
G1 X35.579 Y30.002 Z-3.000 F120.000 
G2 X36.320 Y26.905 Z-3.000 I-8.997 J-3.789 F120.000 
G2 X36.350 Y23.985 Z-3.000 I-38.996 J-1.865 F120.000 
G1 X33.477 Y21.112 Z-3.000 F120.000 
G2 X35.875 Y16.722 Z-3.000 I-30.282 J-19.390 F120.000 
G1 X36.350 Y17.197 Z-3.000 F120.000 
G1 X36.350 Y15.678 Z-3.000 F120.000 
G3 X35.875 Y16.722 Z-3.000 I-12.490 J-5.050 F120.000 
G0 Z30.000 
G0 X36.350 Y-15.678 Z30.000 
G0 X36.350 Y-15.678 Z3.000 
G1 X36.350 Y-15.678 Z-3.000 F60.000 
G1 X36.350 Y-16.744 Z-3.000 F120.000 
G1 X35.429 Y-17.665 Z-3.000 F120.000 
G3 X36.350 Y-15.678 Z-3.000 I-24.866 J12.731 F120.000 
G0 Z30.000 
G0 X33.118 Y-33.552 Z30.000 
G0 X33.118 Y-33.552 Z3.000 
G1 X33.118 Y-33.552 Z-3.000 F60.000 
G3 X36.350 Y-26.094 Z-3.000 I-6.881 J7.411 F120.000 
G1 X36.350 Y-23.532 Z-3.000 F120.000 
G1 X23.632 Y-36.250 Z-3.000 F120.000 
G1 X16.844 Y-36.250 Z-3.000 F120.000 
G1 X15.778 Y-36.250 Z-3.000 F120.000 
G3 X17.765 Y-35.329 Z-3.000 I-10.743 J25.787 F120.000 
G1 X16.844 Y-36.250 Z-3.000 F120.000 
G0 Z30.000 
G0 X-17.097 Z30.000 
G0 X-17.097 Z3.000 
G1 X-17.097 Y-36.250 Z-3.000 F60.000 
G1 X-15.578 Y-36.250 Z-3.000 F120.000 
G2 X-16.622 Y-35.775 Z-3.000 I5.050 J12.490 F120.000 
G1 X-17.097 Y-36.250 Z-3.000 F120.000 
G1 X-23.885 Y-36.250 Z-3.000 F120.000 
G1 X-21.012 Y-33.377 Z-3.000 F120.000 
G2 X-24.955 Y-30.532 Z-3.000 I19.839 J31.645 F120.000 
G1 X-29.902 Y-35.479 Z-3.000 F120.000 
G2 X-33.812 Y-32.600 Z-3.000 I3.744 J9.180 F120.000 
G1 X-28.472 Y-27.260 Z-3.000 F120.000 
G2 X-31.582 Y-23.582 Z-3.000 I25.944 J25.093 F120.000 
G1 X-35.975 Y-27.975 Z-3.000 F120.000 
G2 X-36.150 Y-26.094 Z-3.000 I9.545 J1.839 F120.000 
G1 X-36.150 Y-21.362 Z-3.000 F120.000 
G1 X-34.261 Y-19.473 Z-3.000 F120.000 
G2 X-36.150 Y-15.678 Z-3.000 I31.544 J18.069 F120.000 
G1 X-36.150 Y-21.362 Z-3.000 F120.000 
G0 Z30.000 
G0 X-30.314 Y25.203 Z30.000 
G0 X-30.314 Y25.203 Z3.000 
G1 X-30.314 Y25.203 Z-3.000 F60.000 
G3 X-36.150 Y15.678 Z-3.000 I30.266 J-25.093 F120.000 
G1 X-36.150 Y19.367 Z-3.000 F120.000 
G1 X-30.314 Y25.203 Z-3.000 F120.000 
G2 X-25.103 Y30.414 Z-3.000 I30.369 J-25.158 F120.000 
G1 X-19.267 Y36.250 Z-3.000 F120.000 
G1 X-25.994 Y36.250 Z-3.000 F120.000 
G1 X-26.058 Y36.248 Z-3.000 F120.000 
G1 X-36.148 Y26.158 Z-3.000 F120.000 
G2 X-26.058 Y36.248 Z-3.000 I10.097 J-0.007 F120.000 
G0 Z30.000 
G0 X-22.664 Y32.853 Z30.000 
G0 X-22.664 Y32.853 Z3.000 
G1 X-22.664 Y32.853 Z-3.000 F60.000 
G1 X-25.103 Y30.414 Z-3.000 F120.000 
G2 X-15.578 Y36.250 Z-3.000 I25.093 J-30.266 F120.000 
G1 X-19.267 Y36.250 Z-3.000 F120.000 
G1 X-22.664 Y32.853 Z-3.000 F120.000 
G1 X-22.664 Y32.853 Z-4.000 F60.000 
G1 X-25.103 Y30.414 Z-4.000 F120.000 
G2 X-15.578 Y36.250 Z-4.000 I25.093 J-30.266 F120.000 
G1 X-19.267 Y36.250 Z-4.000 F120.000 
G1 X-22.664 Y32.853 Z-4.000 F120.000 
G0 Z30.000 
G0 X-26.058 Y36.248 Z30.000 
G0 X-26.058 Y36.248 Z3.000 
G1 X-26.058 Y36.248 Z-4.000 F60.000 
G3 X-36.148 Y26.158 Z-4.000 I0.007 J-10.097 F120.000 
G1 X-26.058 Y36.248 Z-4.000 F120.000 
G1 X-25.994 Y36.250 Z-4.000 F120.000 
G1 X-19.267 Y36.250 Z-4.000 F120.000 
G1 X-25.103 Y30.414 Z-4.000 F120.000 
G3 X-30.314 Y25.203 Z-4.000 I25.158 J-30.369 F120.000 
G1 X-36.150 Y19.367 Z-4.000 F120.000 
G1 X-36.150 Y15.678 Z-4.000 F120.000 
G2 X-30.314 Y25.203 Z-4.000 I36.102 J-15.568 F120.000 
G0 Z30.000 
G0 X-36.150 Y-21.362 Z30.000 
G0 X-36.150 Y-21.362 Z3.000 
G1 X-36.150 Y-21.362 Z-4.000 F60.000 
G1 X-36.150 Y-15.678 Z-4.000 F120.000 
G3 X-34.261 Y-19.473 Z-4.000 I33.433 J14.274 F120.000 
G1 X-36.150 Y-21.362 Z-4.000 F120.000 
G1 X-36.150 Y-26.094 Z-4.000 F120.000 
G3 X-35.975 Y-27.975 Z-4.000 I9.720 J-0.042 F120.000 
G1 X-31.582 Y-23.582 Z-4.000 F120.000 
G3 X-28.472 Y-27.260 Z-4.000 I29.054 J21.415 F120.000 
G1 X-33.812 Y-32.600 Z-4.000 F120.000 
G3 X-29.902 Y-35.479 Z-4.000 I7.654 J6.302 F120.000 
G1 X-24.955 Y-30.532 Z-4.000 F120.000 
G3 X-21.012 Y-33.377 Z-4.000 I23.782 J28.799 F120.000 
G1 X-23.885 Y-36.250 Z-4.000 F120.000 
G1 X-17.097 Y-36.250 Z-4.000 F120.000 
G1 X-16.622 Y-35.775 Z-4.000 F120.000 
G3 X-15.578 Y-36.250 Z-4.000 I6.094 J12.015 F120.000 
G1 X-17.097 Y-36.250 Z-4.000 F120.000 
G0 Z30.000 
G0 X16.844 Z30.000 
G0 X16.844 Z3.000 
G1 X16.844 Y-36.250 Z-4.000 F60.000 
G1 X17.765 Y-35.329 Z-4.000 F120.000 
G2 X15.778 Y-36.250 Z-4.000 I-12.731 J24.866 F120.000 
G1 X16.844 Y-36.250 Z-4.000 F120.000 
G1 X23.632 Y-36.250 Z-4.000 F120.000 
G1 X36.350 Y-23.532 Z-4.000 F120.000 
G1 X36.350 Y-26.094 Z-4.000 F120.000 
G2 X33.118 Y-33.552 Z-4.000 I-10.112 J-0.048 F120.000 
G0 Z30.000 
G0 X35.429 Y-17.665 Z30.000 
G0 X35.429 Y-17.665 Z3.000 
G1 X35.429 Y-17.665 Z-4.000 F60.000 
G3 X36.350 Y-15.678 Z-4.000 I-24.866 J12.731 F120.000 
G1 X36.350 Y-16.744 Z-4.000 F120.000 
G1 X35.429 Y-17.665 Z-4.000 F120.000 
G0 Z30.000 
G0 X35.875 Y16.722 Z30.000 
G0 X35.875 Y16.722 Z3.000 
G1 X35.875 Y16.722 Z-4.000 F60.000 
G2 X36.350 Y15.678 Z-4.000 I-12.015 J-6.094 F120.000 
G1 X36.350 Y17.197 Z-4.000 F120.000 
G1 X35.875 Y16.722 Z-4.000 F120.000 
G3 X33.477 Y21.112 Z-4.000 I-32.680 J-14.999 F120.000 
G1 X36.350 Y23.985 Z-4.000 F120.000 
G3 X36.320 Y26.905 Z-4.000 I-39.027 J1.054 F120.000 
G3 X35.579 Y30.002 Z-4.000 I-9.738 J-0.692 F120.000 
G1 X30.632 Y25.055 Z-4.000 F120.000 
G3 X27.360 Y28.572 Z-4.000 I-28.140 J-22.896 F120.000 
G1 X32.700 Y33.912 Z-4.000 F120.000 
G3 X28.075 Y36.075 Z-4.000 I-6.368 J-7.593 F120.000 
G1 X23.682 Y31.682 Z-4.000 F120.000 
G3 X19.573 Y34.361 Z-4.000 I-22.358 J-29.808 F120.000 
G1 X21.462 Y36.250 Z-4.000 F120.000 
G1 X15.778 Y36.250 Z-4.000 F120.000 
G2 X19.573 Y34.361 Z-4.000 I-14.274 J-33.433 F120.000 
G1 X19.573 Y34.361 Z-5.000 F60.000 
G3 X15.778 Y36.250 Z-5.000 I-18.069 J-31.544 F120.000 
G1 X21.462 Y36.250 Z-5.000 F120.000 
G1 X19.573 Y34.361 Z-5.000 F120.000 
G2 X23.682 Y31.682 Z-5.000 I-18.248 J-32.487 F120.000 
G1 X28.075 Y36.075 Z-5.000 F120.000 
G2 X32.700 Y33.912 Z-5.000 I-1.743 J-9.756 F120.000 
G1 X27.360 Y28.572 Z-5.000 F120.000 
G2 X30.632 Y25.055 Z-5.000 I-24.868 J-26.413 F120.000 
G1 X35.579 Y30.002 Z-5.000 F120.000 
G2 X36.320 Y26.905 Z-5.000 I-8.997 J-3.789 F120.000 
G2 X36.350 Y23.985 Z-5.000 I-38.996 J-1.865 F120.000 
G1 X33.477 Y21.112 Z-5.000 F120.000 
G2 X35.875 Y16.722 Z-5.000 I-30.282 J-19.390 F120.000 
G1 X36.350 Y17.197 Z-5.000 F120.000 
G1 X36.350 Y15.678 Z-5.000 F120.000 
G3 X35.875 Y16.722 Z-5.000 I-12.490 J-5.050 F120.000 
G0 Z30.000 
G0 X36.350 Y-15.678 Z30.000 
G0 X36.350 Y-15.678 Z3.000 
G1 X36.350 Y-15.678 Z-5.000 F60.000 
G1 X36.350 Y-16.744 Z-5.000 F120.000 
G1 X35.429 Y-17.665 Z-5.000 F120.000 
G3 X36.350 Y-15.678 Z-5.000 I-24.866 J12.731 F120.000 
G0 Z30.000 
G0 X33.118 Y-33.552 Z30.000 
G0 X33.118 Y-33.552 Z3.000 
G1 X33.118 Y-33.552 Z-5.000 F60.000 
G3 X36.350 Y-26.094 Z-5.000 I-6.881 J7.411 F120.000 
G1 X36.350 Y-23.532 Z-5.000 F120.000 
G1 X23.632 Y-36.250 Z-5.000 F120.000 
G1 X16.844 Y-36.250 Z-5.000 F120.000 
G1 X15.778 Y-36.250 Z-5.000 F120.000 
G3 X17.765 Y-35.329 Z-5.000 I-10.743 J25.787 F120.000 
G1 X16.844 Y-36.250 Z-5.000 F120.000 
G0 Z30.000 
G0 X-17.097 Z30.000 
G0 X-17.097 Z3.000 
G1 X-17.097 Y-36.250 Z-5.000 F60.000 
G1 X-15.578 Y-36.250 Z-5.000 F120.000 
G2 X-16.622 Y-35.775 Z-5.000 I5.050 J12.490 F120.000 
G1 X-17.097 Y-36.250 Z-5.000 F120.000 
G1 X-23.885 Y-36.250 Z-5.000 F120.000 
G1 X-21.012 Y-33.377 Z-5.000 F120.000 
G2 X-24.955 Y-30.532 Z-5.000 I19.839 J31.645 F120.000 
G1 X-29.902 Y-35.479 Z-5.000 F120.000 
G2 X-33.812 Y-32.600 Z-5.000 I3.744 J9.180 F120.000 
G1 X-28.472 Y-27.260 Z-5.000 F120.000 
G2 X-31.582 Y-23.582 Z-5.000 I25.944 J25.093 F120.000 
G1 X-35.975 Y-27.975 Z-5.000 F120.000 
G2 X-36.150 Y-26.094 Z-5.000 I9.545 J1.839 F120.000 
G1 X-36.150 Y-21.362 Z-5.000 F120.000 
G1 X-34.261 Y-19.473 Z-5.000 F120.000 
G2 X-36.150 Y-15.678 Z-5.000 I31.544 J18.069 F120.000 
G1 X-36.150 Y-21.362 Z-5.000 F120.000 
G0 Z30.000 
G0 X-30.314 Y25.203 Z30.000 
G0 X-30.314 Y25.203 Z3.000 
G1 X-30.314 Y25.203 Z-5.000 F60.000 
G3 X-36.150 Y15.678 Z-5.000 I30.266 J-25.093 F120.000 
G1 X-36.150 Y19.367 Z-5.000 F120.000 
G1 X-30.314 Y25.203 Z-5.000 F120.000 
G2 X-25.103 Y30.414 Z-5.000 I30.369 J-25.158 F120.000 
G1 X-19.267 Y36.250 Z-5.000 F120.000 
G1 X-25.994 Y36.250 Z-5.000 F120.000 
G1 X-26.058 Y36.248 Z-5.000 F120.000 
G1 X-36.148 Y26.158 Z-5.000 F120.000 
G2 X-26.058 Y36.248 Z-5.000 I10.097 J-0.007 F120.000 
G0 Z30.000 
G0 X-22.664 Y32.853 Z30.000 
G0 X-22.664 Y32.853 Z3.000 
G1 X-22.664 Y32.853 Z-5.000 F60.000 
G1 X-25.103 Y30.414 Z-5.000 F120.000 
G2 X-15.578 Y36.250 Z-5.000 I25.093 J-30.266 F120.000 
G1 X-19.267 Y36.250 Z-5.000 F120.000 
G1 X-22.664 Y32.853 Z-5.000 F120.000 
G0 Z30.000 
G0 Z30.000 
(finish operation: etu-pls-upotus)
(begin postamble)
M05
G17 G54 G90 G80 G40
M2
