(Exported by FreeCAD)
(Post Processor: linuxcnc_post)
(Output Time:2026-04-22 11:38:29.690880)
(begin preamble)
G17 G54 G40 G49 G80 G90
G21
(begin operation: Fixture)
(machine units: mm/min)
G54 
(finish operation: Fixture)
(begin operation: TC: Endmill_6mm)
(machine units: mm/min)
(TC: Endmill_6mm) 
M5
M6 T2 
G43 H2 
(finish operation: TC: Endmill_6mm)
(begin operation: etukytkin-helix)
(machine units: mm/min)
(etukytkin-helix) 
(helix cut operation) 
G0 Z10.000 
G0 Z10.000 
G0 X-66.500 Y0.000 Z10.000 
G0 X-66.500 Y0.000 Z0.000 
G0 X-64.000 Y0.000 
G1 Z0.000 F60.000 
G2 X-69.000 Y0.000 Z-2.375 I-2.500 J0.000 F120.000 
G2 X-64.000 Y0.000 Z-4.750 I2.500 J0.000 F120.000 
G2 X-69.000 Y0.000 Z-7.125 I-2.500 J0.000 F120.000 
G2 X-64.000 Y0.000 Z-9.500 I2.500 J0.000 F120.000 
G2 X-69.000 Y0.000 Z-11.875 I-2.500 J0.000 F120.000 
G2 X-64.000 Y0.000 Z-14.250 I2.500 J0.000 F120.000 
G2 X-69.000 Y0.000 Z-16.625 I-2.500 J0.000 F120.000 
G2 X-64.000 Y0.000 Z-19.000 I2.500 J0.000 F120.000 
G2 X-69.000 Y0.000 Z-19.000 I-2.500 J0.000 F120.000 
G2 X-64.000 Y0.000 Z-19.000 I2.500 J0.000 F120.000 
G0 X-66.500 Y0.000 Z-19.000 
G0 Z0.000 
G0 Z10.000 
(finish operation: etukytkin-helix)
(begin postamble)
M05
G17 G54 G90 G80 G40
M2
